OBJECTID,ADDRESS,NAME,LOCATION,TYPE,LONGITUDE,LATITUDE
1,200 BROAD STREET,IMPERIAL SCHOOL - BASKETBALL,IMPERIAL SCHOOL,BASKETBALL,-104.60767314100,50.47543571310
2,200 BROAD STREET,IMPERIAL SCHOOL - BALL DIAMOND BS #249,IMPERIAL SCHOOL,BALL DIAMOND,-104.60891603100,50.47489206910
3,200 BROAD ST,IMPERIAL SCHOOL - PLAYGROUND 200 BROAD ST,IMPERIAL SCHOOL,PLAYGROUND,-104.60690252600,50.47482042660
4,200 BROAD STREET,IMPERIAL SCHOOL - ATHLETIC FIELD SOCCER ATHLETIC FIELD,IMPERIAL SCHOOL,ATHLETIC FIELD,-104.60853258500,50.47517184060
5,200 Broad St.,Imperial - Public Elementary School,Imperial - Public Elementary School,Public Elementary School,-104.60793896000,50.47548874000
6,50 DALGLIESH DR,DALGLIESH PARK - PLAYGROUND 50 DALGLIESH DR,DALGLIESH PARK,PLAYGROUND,-104.64895162700,50.48643111920
7,50 DALGLIESH DRIVE,DALGLIESH - ATHLETIC FIELD SOCCER ATHLETIC FIELD,DALGLIESH,ATHLETIC FIELD,-104.64983501700,50.48616303930
8,2705 E HOWELL DR,HOWELL PARK - PLAYGROUND 2705 E HOWELL DR,HOWELL PARK,PLAYGROUND,-104.54420036800,50.46114684180
9,2705 E HOWELL DRIVE,HOWELL MULTI - ATHLETIC FIELD MULTI-USE ATHLETIC FIELD,HOWELL MULTI,ATHLETIC FIELD,-104.54300418100,50.46172334720
10,2705 E HOWELL DRIVE,HOWELL PARK - BALL DIAMOND BS #102,HOWELL PARK,BALL DIAMOND,-104.54481927600,50.46194011410
11,111 E BROADWAY AVENUE,QUEEN ELIZABETH JUBILEE PARK - BASKETBALL,QUEEN ELIZABETH JUBILEE PARK,BASKETBALL,-104.58006020600,50.43723120260
12,111 E BROADWAY AVENUE,QUEEN ELIZABETH JUBILEE PARK - BALL DIAMOND BS #98,QUEEN ELIZABETH JUBILEE PARK,BALL DIAMOND,-104.57991441300,50.43690124360
13,402 HALIFAX ST,HALIFAX/2ND AVE. NORTH PARK - PLAYGROUND 402 HALIFAX ST,HALIFAX/2ND AVE. NORTH PARK,PLAYGROUND,-104.60388538900,50.47218000270
14,120 CAREY ST,CAREY PARK - PLAYGROUND 120 CAREY ST,CAREY PARK,PLAYGROUND,-104.63913782700,50.47633003340
15,6823 GILLMORE DRIVE,MAPLE RIDGE PARK/ST. ANGELA - BALL DIAMOND BS #216,MAPLE RIDGE PARK/ST. ANGELA,BALL DIAMOND,-104.67932297200,50.50011059520
16,6823 GILLMORE DRIVE,ST. ANGELA MERICI - PLAYGROUND 6823 GILLMORE DRIVE,ST. ANGELA MERICI,PLAYGROUND,-104.67973949200,50.50097729320
17,496 SANGSTER BOULEVARD,SANGSTER PARK - ATHLETIC FIELD SOCCER ATHLETIC FIELD,SANGSTER PARK,ATHLETIC FIELD,-104.62647017600,50.48980601720
18,496 SANGSTER BOULEVARD,SANGSTER PARK/DR. HANNA SCHOOL - BALL DIAMOND BS #246,SANGSTER PARK/DR. HANNA SCHOOL,BALL DIAMOND,-104.62810230400,50.48933818310
19,180 WELLS STREET,GEORGE LEE SCHOOL - ATHLETIC FIELD SOCCER ATHLETIC FIELD,GEORGE LEE SCHOOL,ATHLETIC FIELD,-104.64865604700,50.48862048740
20,180 WELLS STREET,GEORGE LEE SCHOOL - BALL DIAMOND BS #199,GEORGE LEE SCHOOL,BALL DIAMOND,-104.64882553400,50.48904678970
21,180 WELLS STREET,GEORGE LEE SCHOOL - BASKETBALL,GEORGE LEE SCHOOL,BASKETBALL,-104.64758224500,50.48898175550
22,180 WELLS ST,GEORGE LEE SCHOOL - PLAYGROUND 180 WELLS ST,GEORGE LEE SCHOOL,PLAYGROUND,-104.64733970600,50.48831977770
23,180 Wells St.,George Lee - Public Elementary School,George Lee - Public Elementary School,Public Elementary School,-104.64779847200,50.48872315190
24,6918 MAPLE BROOK CRESCENT,MAPLE RIDGE PARK - A - SPRAYPAD 6918 MAPLE BROOK CRES,MAPLE RIDGE PARK - A,SPRAYPAD,-104.67887049600,50.50303444400
25,3100 KINGS ROAD,LAKEVIEW PAR 3 GOLF COURSE - OUTDOOR TENNIS,LAKEVIEW PAR 3 GOLF COURSE,OUTDOOR TENNIS,-104.63842365800,50.42987663500
26,129 BROTHERTON AVE,DR. GEORGE FERGUSON PARK W - PLAYGROUND 129 BROTHERTON AVE,DR. GEORGE FERGUSON PARK W,PLAYGROUND,-104.55683910600,50.45138733150
27,129 BROTHERTON AVE,DR. GEORGE FERGUSON PARK E - PLAYGROUND 129 BROTHERTON AVE,DR. GEORGE FERGUSON PARK E,PLAYGROUND,-104.55606913600,50.45139614040
28,129 BROTHERTON AVE,DR. GEORGE FERGUSON PARK - BASKETBALL,DR. GEORGE FERGUSON PARK,BASKETBALL,-104.55608388300,50.45192363790
29,117 Brotherton Ave.,Dr. George Ferguson - Public Elementary School,Dr. George Ferguson - Public Elementary School,Public Elementary School,-104.55644402800,50.45134685950
30,615 6TH AVE,EASTVIEW NEIGHBOURHOOD CENTRE - REC_NBHD FACILITY,EASTVIEW NEIGHBOURHOOD CENTRE,REC_NBHD FACILITY,-104.58943496600,50.45960468010
31,3355 ROBINSON ST,ASSINIBOINE PARK - PLAYGROUND 3355 ROBINSON ST,ASSINIBOINE PARK,PLAYGROUND,-104.62293958900,50.42491347380
32,3355 ROBINSON ST,ASSINIBOINE PARK - OUTDOOR RINK SHELTER,ASSINIBOINE PARK,OUTDOOR RINK SHELTER,-104.62267578800,50.42507507790
33,3355 ROBINSON STREET,ASSINIBOINE PARK - OUTDOOR RINK UNBOARDED,ASSINIBOINE PARK,OUTDOOR RINK UNBOARDED,-104.62220435400,50.42500877780
34,156 SHANNON ROAD,RICHARDSON PARK - ATHLETIC FIELD SOCCER ATHLETIC FIELD,RICHARDSON PARK,ATHLETIC FIELD,-104.61486687100,50.39838727710
35,2715 HELMSING STREET,SCHWEITZER PARK - BASKETBALL,SCHWEITZER PARK,BASKETBALL,-104.53817358900,50.43607592310
36,2715 HELMSING ST,SCHWEITZER PARK - PLAYGROUND 2715 HELMSING ST,SCHWEITZER PARK,PLAYGROUND,-104.53801772400,50.43595474010
37,2755 ELPHINSTONE ST,KIWANIS PARK - PLAYGROUND 2755 ELPHINSTONE ST,KIWANIS PARK,PLAYGROUND,-104.62958936900,50.43620563700
38,2755 ELPHINSTONE STREET,KIWANIS WATERFALL PARK NW - BALL DIAMOND BS #50,KIWANIS WATERFALL PARK NW,BALL DIAMOND,-104.63023724900,50.43847841450
39,2755 ELPHINSTONE ST,KIWANIS WATERFALL PARK - SEASONAL WASHROOM,KIWANIS WATERFALL PARK,SEASONAL WASHROOM,-104.62915582400,50.43670214770
40,2755 ELPHINSTONE STREET,KIWANIS WATERFALL PARK SE - BALL DIAMOND BS #48,KIWANIS WATERFALL PARK SE,BALL DIAMOND,-104.62906971800,50.43731421600
41,2755 ELPHINSTONE STREET,KIWANIS WATERFALL PARK NE - BALL DIAMOND BS #49,KIWANIS WATERFALL PARK NE,BALL DIAMOND,-104.62945560000,50.43815933820
42,2755 ELPHINSTONE STREET,KIWANIS WATERFALL PARK - PARK WATER FEATURE,KIWANIS WATERFALL PARK,PARK WATER FEATURE,-104.62880286900,50.43545764330
43,1912 E 7TH AVE,STEWART RUSSELL PARK - BASKETBALL,STEWART RUSSELL PARK,BASKETBALL,-104.55575855300,50.45927566650
44,1920 E 7TH AVENUE,STEWART RUSSELL SCHOOL SOUTH - BALL DIAMOND BS #111,STEWART RUSSELL SCHOOL SOUTH,BALL DIAMOND,-104.55509654800,50.45907023580
45,1920 E 7TH AVE,STEWART RUSSELL SCHOOL - PLAYGROUND 1920 E 7TH AVE,STEWART RUSSELL SCHOOL,PLAYGROUND,-104.55448654000,50.45888469440
46,6102 BRUNSKILL PL,A.E. WILSON PARK (EAST) - MOUNT ROYAL - PLAYGROUND 6102 BRUNSKILL PL,A.E. WILSON PARK (EAST) - MOUNT ROYAL,PLAYGROUND,-104.66793396100,50.45923754780
47,210 MCINTOSH ST,KEN JENKINS SOCCER - ATHLETIC FIELD SOCCER ATHLETIC FIELD,KEN JENKINS SOCCER,ATHLETIC FIELD,-104.65634217500,50.47431274700
48,210 MCINTOSH STREET,KEN JENKINS MULTI - ATHLETIC FIELD MULTI-USE ATHLETIC FIELD,KEN JENKINS MULTI,ATHLETIC FIELD,-104.65574819700,50.47438074070
49,210 MCINTOSH STREET,KEN JENKINS SCHOOL - BALL DIAMOND BS #197,KEN JENKINS SCHOOL,BALL DIAMOND,-104.65771404500,50.47407083740
50,2015 9TH AVE N,NORTH EAST PARK NWW - BALL DIAMOND BS #280 (AKA=REGINA MINOR GIRLS BALL),NORTH EAST PARK NWW,BALL DIAMOND,-104.61052237500,50.48405823500
51,727 N MCINTOSH ST,ST. BERNADETTE SCHOOL - PLAYGROUND 727 N MCINTOSH ST,ST. BERNADETTE SCHOOL,PLAYGROUND,-104.65229285000,50.48875385340
52,727 N MCINTOSH STREET,ST. BERNADETTE SCHOOL - BASKETBALL,ST. BERNADETTE SCHOOL,BASKETBALL,-104.65170426600,50.48914963620
53,727 N MCINTOSH STREET,ST. BERNADETTE SCHOOL - ATHLETIC FIELD SOCCER ATHLETIC FIELD,ST. BERNADETTE SCHOOL,ATHLETIC FIELD,-104.65116949000,50.48879724150
54,727 N MCINTOSH STREET,ST. BERNADETTE SCHOOL - BALL DIAMOND BS #205,ST. BERNADETTE SCHOOL,BALL DIAMOND,-104.65145827400,50.48850325350
55,727 N. McIntosh St.,St. Bernadette - Separate Elementary School,St. Bernadette - Separate Elementary School,Separate Elementary School,-104.65185948500,50.48879924400
56,45 MIKKELSON DR,ST. FRANCIS SCHOOL - BASKETBALL,ST. FRANCIS SCHOOL,BASKETBALL,-104.66505040500,50.46513111470
57,45 MIKKELSON DRIVE,ST. FRANCIS SCHOOL SW - BALL DIAMOND BS #143,ST. FRANCIS SCHOOL SW,BALL DIAMOND,-104.66648639200,50.46429973760
58,45 MIKKELSON DR,ST. FRANCIS SCHOOL W - PLAYGROUND 45 MIKKELSON DR,ST. FRANCIS SCHOOL W,PLAYGROUND,-104.66616168400,50.46483158200
59,45 MIKKELSON DRIVE,ST. FRANCIS SCHOOL SE - BALL DIAMOND BS #142,ST. FRANCIS SCHOOL SE,BALL DIAMOND,-104.66486315200,50.46430242420
60,45 MIKKELSON DRIVE,ST. FRANCIS SCHOOL - ATHLETIC FIELD SOCCER ATHLETIC FIELD,ST. FRANCIS SCHOOL,ATHLETIC FIELD,-104.66580004000,50.46455686910
61,45 MIKKELSON DR,ST. FRANCIS SCHOOL NE - PLAYGROUND 45 MIKKELSON DR,ST. FRANCIS SCHOOL NE,PLAYGROUND,-104.66478039900,50.46510671880
62,45 MIKKELSON DR,ST. FRANCIS SCHOOL SE - PLAYGROUND 45 MIKKELSON DR,ST. FRANCIS SCHOOL SE,PLAYGROUND,-104.66507714000,50.46497417680
63,45 Mikkelson Dr.,St. Francis - Separate Elementary School,St. Francis - Separate Elementary School,Separate Elementary School,-104.66563604800,50.46482295370
64,6208 SHERWOOD DRIVE,RUTH BUCK PARK - BALL DIAMOND BS #192,RUTH BUCK PARK,BALL DIAMOND,-104.67383219100,50.47947058500
65,280 SANGSTER BLVD,ST. TIMOTHY SCHOOL - PLAYGROUND 280 SANGSTER BLVD,ST. TIMOTHY SCHOOL,PLAYGROUND,-104.63240586500,50.49127821570
66,280 SANGSTER BOULEVARD,ST. TIMOTHY SCHOOL - BALL DIAMOND BS #264,ST. TIMOTHY SCHOOL,BALL DIAMOND,-104.63257265000,50.49064727740
67,126 SANGSTER BLVD,ST TIMOTHY SOCCER - ATHLETIC FIELD SOCCER ATHLETIC FIELD,ST TIMOTHY SOCCER,ATHLETIC FIELD,-104.63358945900,50.49066201220
68,280 SANGSTER BOULEVARD,ST. TIMOTHY SCHOOL - BASKETBALL,ST. TIMOTHY SCHOOL,BASKETBALL,-104.63249774100,50.49104285700
69,280 SANGSTER BOULEVARD,ST. TIMOTHY MULTI - ATHLETIC FIELD MULTI-USE ATHLETIC FIELD,ST. TIMOTHY MULTI,ATHLETIC FIELD,-104.63359015900,50.49065933790
70,280 Sangster Blvd.,St. Timothy - Separate Elementary School,St. Timothy - Separate Elementary School,Separate Elementary School,-104.63279800500,50.49092575450
71,10 NORRIS ROAD,BIRCHWOOD PARK NW - BALL DIAMOND BS #4,BIRCHWOOD PARK NW,BALL DIAMOND,-104.60246382100,50.40107816780
72,10 NORRIS ROAD,BIRCHWOOD PARK SE - BALL DIAMOND BS #3,BIRCHWOOD PARK SE,BALL DIAMOND,-104.60182202900,50.40069515910
73,2155 COLLEGE AVENUE,University of Regina - College Ave. Campus,University of Regina - College Ave. Campus,Other School,-104.61017814500,50.43955392300
74,2155 COLLEGE AVENUE,UNIVERSITY OF REGINA COLLEGE AVE CAMPUS,Wascana Centre,Wascana Centre,-104.61099705900,50.44003311800
75,710 GRAHAM RD,HENRY BRAUN PARK E - BALL DIAMOND BS #112,HENRY BRAUN PARK E,BALL DIAMOND,-104.53284066900,50.46166565500
76,195 WINDFIELD RD,ST. DOMINIC SAVIO SCHOOL - PLAYGROUND 195 WINDFIELD RD,ST. DOMINIC SAVIO SCHOOL,PLAYGROUND,-104.56237661200,50.43213114710
77,195 WINDFIELD ROAD,ST. DOMINIC SAVIO SCHOOL - BALL DIAMOND BS #82,ST. DOMINIC SAVIO SCHOOL,BALL DIAMOND,-104.56193120200,50.43187850200
78,195 Windfield Rd.,St. Dominic Savio - Separate Elementary School,St. Dominic Savio - Separate Elementary School,Separate Elementary School,-104.56281642500,50.43165417840
79,3310 LAKEVIEW AVENUE,KINSMEN SOUTH SOCCER - ATHLETIC FIELD SOCCER ATHLETIC FIELD,KINSMEN SOUTH SOCCER,ATHLETIC FIELD,-104.63097614000,50.42321020030
80,3310 LAKEVIEW AVE,KINSMEN PARK SOUTH - SEASONAL WASHROOM,KINSMEN PARK SOUTH,SEASONAL WASHROOM,-104.63262269600,50.42347355080
81,3310 LAKEVIEW AVE,KINSMEN PARK SOUTH - PLAYGROUND 3310 LAKEVIEW AVE,KINSMEN PARK SOUTH,PLAYGROUND,-104.63164831500,50.42379229880
82,3310 LAKEVIEW AVENUE,KINSMEN PARK SOUTH - BALL DIAMOND BS #42,KINSMEN PARK SOUTH,BALL DIAMOND,-104.62945995400,50.42285176390
83,3310 LAKEVIEW AVE,KINSMEN SOUTH SOCCER - ATHLETIC FIELD SOCCER ATHLETIC FIELD,KINSMEN SOUTH SOCCER,ATHLETIC FIELD,-104.63097913200,50.42317831560
84,3310 LAKEVIEW AVENUE,KINSMEN PARK SOUTH - SPRAYPAD 3310 LAKEVIEW AVE,KINSMEN PARK SOUTH,SPRAYPAD,-104.63220347100,50.42387491120
85,3211 ALBERT STREET,PROVINCIAL OFFICE BUILDING AND LABORATORY,Wascana Centre,Wascana Centre,-104.61514185200,50.42728583850
86,1401 ROBINSON ST.,ALBERT BRANCH LIBRARY,ALBERT BRANCH LIBRARY,Library,-104.62353604100,50.45654237120
87,150 ARGYLE ST,ST. PETER SCHOOL - PLAYGROUND 150 ARGYLE ST,ST. PETER SCHOOL,PLAYGROUND,-104.63369405200,50.47641161950
88,150 ARGYLE STREET,ST. PETER SCHOOL - BALL DIAMOND BS #260,ST. PETER SCHOOL,BALL DIAMOND,-104.63509601900,50.47617235020
89,150 Argyle St.,St. Peter - Separate Elementary School,St. Peter - Separate Elementary School,Separate Elementary School,-104.63411533800,50.47646940320
90,160 BROAD ST.,NORTH EAST COMMUNITY CENTRE - REC_NBHD FACILITY,NORTH EAST COMMUNITY CENTRE,REC_NBHD FACILITY,-104.60703603700,50.47636208490
91,150 BROTHERTON AVENUE,ST. CATHERINE SCHOOL - BASKETBALL,ST. CATHERINE SCHOOL,BASKETBALL,-104.55431491900,50.45313870750
92,150 BROTHERTON AVE,ST. CATHERINE SCHOOL - PLAYGROUND 150 BROTHERTON AVE,ST. CATHERINE SCHOOL,PLAYGROUND,-104.55434679100,50.45273086050
93,150 BROTHERTON AVENUE,ST. CATHERINE SCHOOL - ATHLETIC FIELD SOCCER ATHLETIC FIELD,ST. CATHERINE SCHOOL,ATHLETIC FIELD,-104.55396035900,50.45356581290
94,150 Brotherton Ave.,St. Catherine - Separate Elementary School,St. Catherine - Separate Elementary School,Separate Elementary School,-104.55380942500,50.45306752510
95,1201 ROTHWELL STREET,ROTHWELL - ATHLETIC FIELD SOCCER ATHLETIC FIELD,ROTHWELL,ATHLETIC FIELD,-104.56938598100,50.45872304570
96,1201 ROTHWELL ST,ROTHWELL PARK - PLAYGROUND 1201 ROTHWELL ST,ROTHWELL PARK,PLAYGROUND,-104.57010764900,50.45867302130
97,2255 COLLEGE AVENUE,DARKE HALL,Wascana Centre,Wascana Centre,-104.61224296100,50.43993899260
98,170 FUHRMANN CRESCENT,FUHRMANN PARK - OUTDOOR RINK UNBOARDED,FUHRMANN PARK,OUTDOOR RINK UNBOARDED,-104.65778703900,50.48710686030
99,170 FUHRMANN CRESCENT,FUHRMANN PARK - ATHLETIC FIELD SOCCER ATHLETIC FIELD,FUHRMANN PARK,ATHLETIC FIELD,-104.65757219200,50.48715764540
100,170 FUHRMANN CRES,FUHRMANN PARK - OUTDOOR RINK SHELTER,FUHRMANN PARK,OUTDOOR RINK SHELTER,-104.65788857700,50.48700505620
101,770 RINK AVENUE,ST. JEROME SCHOOL - BASKETBALL,ST. JEROME SCHOOL,BASKETBALL,-104.68144492500,50.48853531730
102,770 RINK AVE,ST. JEROME SCHOOL - PLAYGROUND 770 RINK AVE,ST. JEROME SCHOOL,PLAYGROUND,-104.68145446600,50.48824644560
103,770 Rink Ave.,St. Jerome - Separate Elementary School,St. Jerome - Separate Elementary School,Separate Elementary School,-104.68178395500,50.48846800700
104,2405 LEGISLATIVE DRIVE,LEGISLATIVE BUILDING,Wascana Centre,Wascana Centre,-104.61514642600,50.43246317220
105,2640 31st Ave,Fire Hall No. 3,TOM YARNTON Fire Hall,Fire,-104.61945014400,50.41045560120
106,901 PRINCESS ST,PARKDALE PARK - PLAYGROUND 901 PRINCESS ST,PARKDALE PARK,PLAYGROUND,-104.63441151900,50.46348509910
107,901 PRINCESS STREET,PARKDALE PARK - ATHLETIC FIELD SOCCER ATHLETIC FIELD,PARKDALE PARK,ATHLETIC FIELD,-104.63504717100,50.46351822010
108,901 PRINCESS STREET,PARKDALE PARK - BALL DIAMOND BS #155,PARKDALE PARK,BALL DIAMOND,-104.63434929800,50.46428711920
109,3475 ALBERT STREET,TC DOUGLAS BUILDING AND MACKENZIE ART GALLERY,Wascana Centre,Wascana Centre,-104.61640319600,50.42513994250
110,1851 JUBILEE AVENUE,MCVEETY PARK - OUTDOOR RINK UNBOARDED,MCVEETY PARK,OUTDOOR RINK UNBOARDED,-104.60694682400,50.42052250150
111,1851 JUBILEE AVE,MCVEETY PARK - BALL DIAMOND,MCVEETY PARK,BALL DIAMOND,-104.60629331300,50.41974233590
112,38 TURGEON CRES,MARION MCVEETY SCHOOL - OUTDOOR RINK SHELTER,MARION MCVEETY SCHOOL,OUTDOOR RINK SHELTER,-104.60699583600,50.42080993890
113,1851 JUBILEE AVENUE,MCVEETY PARK - OUTDOOR RINK BOARDED,MCVEETY PARK,OUTDOOR RINK BOARDED,-104.60739543000,50.42049281950
114,1851 JUBILEE AVE,MCVEETY PARK - PLAYGROUND 1851 JUBILEE AVE,MCVEETY PARK,PLAYGROUND,-104.60660102900,50.42082970720
115,1851 JUBILEE AVENUE,MCVEETY PARK - BALL DIAMOND BS #29,MCVEETY PARK,BALL DIAMOND,-104.60728047900,50.41973262100
116,30 WILLISTON DRIVE,WILLISTON PARK  - ATHLETIC FIELD SOCCER ATHLETIC FIELD,WILLISTON PARK,ATHLETIC FIELD,-104.67909730400,50.48193069540
117,30 WILLISTON DRIVE,WILLISTON PARK - OUTDOOR RINK UNBOARDED,WILLISTON PARK,OUTDOOR RINK UNBOARDED,-104.67765575700,50.48128064220
118,30 WILLISTON DR,WILLISTON PARK - PLAYGROUND 30 WILLISTON DR,WILLISTON PARK,PLAYGROUND,-104.67831445500,50.48218635510
119,2828 E DEWDNEY AVE,JUDGE BRYANT SCHOOL - PLAYGROUND 2828 E DEWDNEY AVE,JUDGE BRYANT SCHOOL,PLAYGROUND,-104.54267342300,50.45595966780
120,2828 E DEWDNEY AVE,JUDGE BRYANT SCHOOL - BASKETBALL,JUDGE BRYANT SCHOOL,BASKETBALL,-104.54256578900,50.45613319000
121,2828 E. Dewdney Ave.,Judge Bryant - Public Elementary School,Judge Bryant - Public Elementary School,Public Elementary School,-104.54197670500,50.45561582650
122,126 SANGSTER BLVD,STAN OXELGREN PARK - PLAYGROUND 126 SANGSTER BLVD,STAN OXELGREN PARK,PLAYGROUND,-104.63510582300,50.48942366530
123,126 SANGSTER BOULEVARD,STAN OXELGREN PARK - OUTDOOR RINK UNBOARDED,STAN OXELGREN PARK,OUTDOOR RINK UNBOARDED,-104.63380869100,50.48964943790
124,126 SANGSTER BLVD,STAN OXELGREN PARK - OUTDOOR RINK SHELTER,STAN OXELGREN PARK,OUTDOOR RINK SHELTER,-104.63360827700,50.48995904850
125,126 SANGSTER BOULEVARD,STAN OXELGREN PARK - OUTDOOR RINK BOARDED,STAN OXELGREN PARK,OUTDOOR RINK BOARDED,-104.63330805200,50.48965790590
126,635 E DOUGLAS AVENUE,DOUGLAS PARK SCHOOL NE - BALL DIAMOND BS #64,DOUGLAS PARK SCHOOL NE,BALL DIAMOND,-104.57333162700,50.43194569340
127,635 E DOUGLAS AVENUE,DOUGLAS PARK SCHOOL - BASKETBALL,DOUGLAS PARK SCHOOL,BASKETBALL,-104.57488062300,50.43231665990
128,635 E DOUGLAS AVENUE,DOUGLAS PARK SCHOOL NW - BALL DIAMOND BS #63,DOUGLAS PARK SCHOOL NW,BALL DIAMOND,-104.57439365000,50.43195572180
129,621 E DOUGLAS AVE,DOUGLAS PARK SCHOOL N - PLAYGROUND 621 E DOUGLAS AVE,DOUGLAS PARK SCHOOL N,PLAYGROUND,-104.57467064400,50.43297281400
130,621 E DOUGLAS AVE,DOUGLAS PARK SCHOOL S - PLAYGROUND 621 E DOUGLAS AVE,DOUGLAS PARK SCHOOL S,PLAYGROUND,-104.57443125300,50.43257665940
131,635 E DOUGLAS AVENUE,DOUGLAS PARK SCHOOL - ATHLETIC FIELD SOCCER ATHLETIC FIELD,DOUGLAS PARK SCHOOL,ATHLETIC FIELD,-104.57374215200,50.43279137140
132,635 E. Douglas Ave.,Douglas Park - Public Elementary School,Douglas Park - Public Elementary School,Public Elementary School,-104.57435821000,50.43230219700
133,2707 E 7TH AVE,ST. THERESA SCHOOL S - PLAYGROUND 2707 E 7TH AVE,ST. THERESA SCHOOL S,PLAYGROUND,-104.54416211600,50.45795235270
134,2707 E 7TH AVE,ST. THERESA SCHOOL N - PLAYGROUND 2707 E 7TH AVE,ST. THERESA SCHOOL N,PLAYGROUND,-104.54400589700,50.45855263050
135,2707 E 7TH AVENUE,ST. THERESA SCHOOL - BASKETBALL,ST. THERESA SCHOOL,BASKETBALL,-104.54331550000,50.45803851090
136,2707 E 7TH AVENUE,ST. THERESA SCHOOL - BALL DIAMOND BS #86,ST. THERESA SCHOOL,BALL DIAMOND,-104.54392283300,50.45780516110
137,2707 E. 7th Ave.,St. Theresa - Separate Elementary School,St. Theresa - Separate Elementary School,Separate Elementary School,-104.54351268100,50.45824517580
138,1055 N MCINTOSH ST,FRENCH PARK - PLAYGROUND 1055 N MCINTOSH ST,FRENCH PARK,PLAYGROUND,-104.65208195900,50.49291231600
139,3215 LAKEVIEW AVENUE,L'ARCHE PARK/ARGYLE SCHOOL - BALL DIAMOND BS #1,L'ARCHE PARK/ARGYLE SCHOOL,BALL DIAMOND,-104.62674157800,50.42069856270
140,3215 LAKEVIEW AVENUE,L'ARCHE PARK/ARGYLE SCHOOL - BALL DIAMOND BS #2,L'ARCHE PARK/ARGYLE SCHOOL,BALL DIAMOND,-104.62701340600,50.42153590270
141,1101 8TH AVE N,DOVER PARK - PLAYGROUND 1101 8TH AVE N,DOVER PARK,PLAYGROUND,-104.59704736700,50.48313436470
142,8103 SHERWOOD DRIVE,WESTHILL PARK - ATHLETIC FIELD SOCCER ATHLETIC FIELD,WESTHILL PARK,ATHLETIC FIELD,-104.69923806000,50.48043520360
143,8103 SHERWOOD DR,WESTHILL PARK - BASKETBALL,WESTHILL PARK,BASKETBALL,-104.69980777100,50.48008202230
144,8103 SHERWOOD DR,WESTHILL PARK - PLAYGROUND 8103 SHERWOOD DR,WESTHILL PARK,PLAYGROUND,-104.69769083600,50.48124481140
145,2606 GRANT ROAD,MIKE BADHAM PARK - OUTDOOR RINK BOARDED,MIKE BADHAM PARK,OUTDOOR RINK BOARDED,-104.61111430600,50.40164597940
146,2606 GRANT ROAD,MIKE BADHAM PARK - BALL DIAMOND BS #12,MIKE BADHAM PARK,BALL DIAMOND,-104.61037025700,50.40252476120
147,2501 GRANT RD,MIKE BADHAM PARK - OUTDOOR RINK SHELTER,MIKE BADHAM PARK,OUTDOOR RINK SHELTER,-104.61141294600,50.40173448030
148,2606 GRANT ROAD,MIKE BADHAM PARK - OUTDOOR RINK UNBOARDED,MIKE BADHAM PARK,OUTDOOR RINK UNBOARDED,-104.61070109500,50.40164301110
149,435 ELPHINSTONE STREET,PATRICIA PARK  - ATHLETIC FIELD SOCCER ATHLETIC FIELD,PATRICIA PARK,ATHLETIC FIELD,-104.63047631500,50.47123930670
150,40 Sheppard St.,Regina Huda - Public Elementary School,Regina Huda - Public Elementary School,Public Elementary School,-104.62445956600,50.48094617110
151,2202 8th Ave. N.,Harvest City Christian - Public Elementary School,Harvest City Christian - Public Elementary School,Public Elementary School,-104.61233183300,50.48261357540
152,390 DALGLIESH DR,HENRY JANZEN SOCCER - ATHLETIC FIELD SOCCER ATHLETIC FIELD,HENRY JANZEN SOCCER,ATHLETIC FIELD,-104.65601497900,50.49044895250
153,107 ALBERT ST.,REGENT PLACE BRANCH LIBRARY,REGENT PLACE BRANCH LIBRARY,Library,-104.61732358000,50.47668494170
154,4055 15TH AVENUE,LES SHERMAN PARK NORTH - BALL DIAMOND BS #152,LES SHERMAN PARK NORTH,BALL DIAMOND,-104.64039254100,50.44213728760
155,4055 15TH AVENUE,LES SHERMAN PARK NORTH - BALL DIAMOND BS #153,LES SHERMAN PARK NORTH,BALL DIAMOND,-104.63897147100,50.44125970060
156,35 GROOME AVENUE,ARLINGTON - ATHLETIC FIELD SOCCER ATHLETIC FIELD,ARLINGTON,ATHLETIC FIELD,-104.62726929300,50.39936517710
157,2714 E SWAIN PLACE,JOLLY PARK - BASKETBALL,JOLLY PARK,BASKETBALL,-104.54491503400,50.43619264890
158,2714 E SWAIN PL,JOLLY PARK - PLAYGROUND 2714 E SWAIN PL,JOLLY PARK,PLAYGROUND,-104.54475976700,50.43599746160
159,1027 COLLEGE AVENUE,MILLER HIGH SCHOOL - OUTDOOR TENNIS,MILLER HIGH SCHOOL,OUTDOOR TENNIS,-104.59568972700,50.43892347930
160,1027 COLLEGE AVENUE,MILLER HIGH SCHOOL - BALL DIAMOND,MILLER HIGH SCHOOL,BALL DIAMOND,-104.59753047800,50.43909898680
161,1027 COLLEGE AVENUE,MILLER MULTI - ATHLETIC FIELD MULTI-USE ATHLETIC FIELD,MILLER MULTI,ATHLETIC FIELD,-104.59689390400,50.43881000370
162,1027 College Ave.,Miller Comprehensive High School - Separate High School,Miller Comprehensive High School - Separate High School,Separate High School,-104.59660307700,50.43965462090
163,1399 N LAKERIDGE RD,THERESA STEVENSON PARK - PLAYGROUND 1399 N LAKERIDGE RD,THERESA STEVENSON PARK,PLAYGROUND,-104.65240238300,50.50290218960
164,1910 E WAGMAN DRIVE,WILFRED WALKER MULTI - ATHLETIC FIELD MULTI-USE ATHLETIC FIELD,WILFRED WALKER MULTI,ATHLETIC FIELD,-104.55505107900,50.43984917540
165,1910 E WAGMAN DRIVE,W. WALKER PARK - OUTDOOR RINK UNBOARDED,W. WALKER PARK,OUTDOOR RINK UNBOARDED,-104.55584166600,50.44027953560
166,1910 E WAGMAN DR,WILFRED WALKER SCHOOL - OUTDOOR RINK SHELTER,WILFRED WALKER SCHOOL,OUTDOOR RINK SHELTER,-104.55604756600,50.44042839990
167,61 PLAINSVIEW DRIVE,PLAINSVIEW PARK - ATHLETIC FIELD SOCCER ATHLETIC FIELD,PLAINSVIEW PARK,ATHLETIC FIELD,-104.62168815300,50.39840183100
168,61 PLAINSVIEW DR,PLAINSVIEW PARK - PLAYGROUND 61 PLAINSVIEW DR,PLAINSVIEW PARK,PLAYGROUND,-104.62210161200,50.39878013970
169,310 UPLAND DRIVE,ST. GREGORY MULTI - ATHLETIC FIELD MULTI-USE ATHLETIC FIELD,ST. GREGORY MULTI,ATHLETIC FIELD,-104.61129615600,50.49321917580
170,310 UPLAND DR,ST. GREGORY PARK - PLAYGROUND 310 UPLAND DR,ST. GREGORY PARK,PLAYGROUND,-104.61026005500,50.49314449170
171,310 UPLAND DRIVE,ST. GREGORY PARK - BALL DIAMOND BS #257,ST. GREGORY PARK,BALL DIAMOND,-104.61195831800,50.49221413460
172,1770 9th Ave N,Fire Hall No. 2,WILLIAM MOFFAT Fire Hall,Fire,-104.60575367400,50.48469307470
173,5382 2ND AVE N,KEN JENKINS SCHOOL - OUTDOOR RINK SHELTER,KEN JENKINS SCHOOL,OUTDOOR RINK SHELTER,-104.65712594900,50.47327846760
174,5382 2ND AVE N,KEN JENKINS SCHOOL - PLAYGROUND 5382 2ND AVE N,KEN JENKINS SCHOOL,PLAYGROUND,-104.65775325600,50.47288526080
175,5382 2ND AVENUE N,KEN JENKINS SCHOOL - BASKETBALL,KEN JENKINS SCHOOL,BASKETBALL,-104.65769063400,50.47280049620
176,5382 2ND AVENUE N,KEN JENKINS PARK - OUTDOOR RINK UNBOARDED,KEN JENKINS PARK,OUTDOOR RINK UNBOARDED,-104.65752923300,50.47338815030
177,222 SUNSET DRIVE,REALTORS PARK - OUTDOOR TENNIS,REALTORS PARK,OUTDOOR TENNIS,-104.63331451700,50.40968206480
178,222 SUNSET DR.,OPTIMIST - ARENA,OPTIMIST,ARENA,-104.63337382500,50.40914467950
179,222 SUNSET DRIVE,REALTORS WEST SOCCER - ATHLETIC FIELD SOCCER ATHLETIC FIELD,REALTORS WEST SOCCER,ATHLETIC FIELD,-104.63418989200,50.41002263960
180,1301 PARKER AVENUE,QU'APPELLE SOCCER - ATHLETIC FIELD SOCCER ATHLETIC FIELD,QU'APPELLE SOCCER,ATHLETIC FIELD,-104.60027624200,50.41264651200
181,5657 ROCHDALE BOULEVARD,LAKERIDGE SPORTS PARK/RIFFEL MULTI - ATHLETIC FIELD MULTI-USE ATHLETIC FIELD,LAKERIDGE SPORTS PARK/RIFFEL MULTI,ATHLETIC FIELD,-104.66101457600,50.49435379320
182,5657 ROCHDALE BOULEVARD,LAKERIDGE SPORTS PARK/RIFFEL - BALL DIAMOND BS #214,LAKERIDGE SPORTS PARK/RIFFEL,BALL DIAMOND,-104.66060045800,50.49522321670
183,220 CAMBRIDGE AVE,MILFORD PARK - PLAYGROUND 220 CAMBRIDGE AVE,MILFORD PARK,PLAYGROUND,-104.55142371200,50.45102149940
184,480 RINK AVE,W.H. FORD SCHOOL - PLAYGROUND 480 RINK AVE,W.H. FORD SCHOOL,PLAYGROUND,-104.66990176600,50.48812289030
185,480 Rink Ave.,W. H. Ford - Public Elementary School,W. H. Ford - Public Elementary School,Public Elementary School,-104.66942775400,50.48856973310
186,129 BROTHERTON AVENUE,DR. FERGUSON PARK - OUTDOOR RINK UNBOARDED,DR. FERGUSON PARK,OUTDOOR RINK UNBOARDED,-104.55561756000,50.45207391880
187,117 BROTHERTON AVE,DR. GEORGE FERGUSON SCHOOL - OUTDOOR RINK SHELTER,DR. GEORGE FERGUSON SCHOOL,OUTDOOR RINK SHELTER,-104.55556579700,50.45220435540
188,129 BROTHERTON AVENUE,DR. FERGUSON PARK - BALL DIAMOND BS #65,DR. FERGUSON PARK,BALL DIAMOND,-104.55504299600,50.45173758270
189,129 BROTHERTON AVENUE,DR. FERGUSON PARK - BASKETBALL,DR. FERGUSON PARK,BASKETBALL,-104.55590385700,50.45214568150
190,3507 ARBOR GROVE DRIVE,WOODLAND GROVE PARK - BASKETBALL,WOODLAND GROVE PARK,BASKETBALL,-104.53049640100,50.42369749390
191,3507 ARBOR GROVE DR,WOODLAND GROVE PARK - PLAYGROUND 3507 ARBOR GROVE DR,WOODLAND GROVE PARK,PLAYGROUND,-104.53026923500,50.42375767480
192,1197 PARK STREET,ROTHWELL FIELDS - BALL DIAMOND BS #99 or 100 or 101,ROTHWELL FIELDS,BALL DIAMOND,-104.56699993800,50.46027418780
193,216 HASTINGS CRES,HASTINGS PARK - PLAYGROUND 216 HASTINGS CRES,HASTINGS PARK,PLAYGROUND,-104.67355593000,50.48208626230
194,15 STOREY CRESCENT,STOREY PARK - BALL DIAMOND BS #213,STOREY PARK,BALL DIAMOND,-104.66904951300,50.48648950290
195,5401 SHERWOOD DRIVE,TENNIS COURT PARK - OUTDOOR TENNIS,TENNIS COURT PARK,OUTDOOR TENNIS,-104.65874274200,50.47665959370
196,4710 CASTLE RD,ST. MATTHEW SCHOOL - PLAYGROUND 4710 CASTLE RD,ST. MATTHEW SCHOOL,PLAYGROUND,-104.60482447600,50.40465170980
197,4710 Castle Rd.,St. Matthew - Separate Elementary School,St. Matthew - Separate Elementary School,Separate Elementary School,-104.60455715800,50.40448718180
198,2343 EDGAR STREET,ST. AUGUSTINE SCHOOL - BALL DIAMOND BS #79,ST. AUGUSTINE SCHOOL,BALL DIAMOND,-104.58596940100,50.44147537310
199,2343 EDGAR ST,ST. AUGUSTINE SCHOOL/JEAN VANIER INSTITUTE - PLAYGROUND 2343 EDGAR ST,ST. AUGUSTINE SCHOOL/JEAN VANIER INSTITUTE,PLAYGROUND,-104.58670322800,50.44194716770
200,2343 Edgar St.,St. Augustine - Separate Elementary School,St. Augustine - Separate Elementary School,Separate Elementary School,-104.58736380100,50.44182714960
201,425 15th Ave,Jean Vanier - Separate Elementary School,Jean Vanier - Separate Elementary School,Separate Elementary School,-104.58648235000,50.44178332370
202,1601 E. DEWDNEY AVE.,GLEN ELM BRANCH LIBRARY,GLEN ELM BRANCH LIBRARY,Library,-104.56020658200,50.45461077610
203,3100 20TH AVENUE,LAKEVIEW SCHOOL SE - BALL DIAMOND BS #17,LAKEVIEW SCHOOL SE,BALL DIAMOND,-104.62562727200,50.43191284240
204,3100 20TH AVENUE,LAKEVIEW SCHOOL - ATHLETIC FIELD SOCCER ATHLETIC FIELD,LAKEVIEW SCHOOL,ATHLETIC FIELD,-104.62603180300,50.43210124790
205,3100 20TH AVENUE,LAKEVIEW SCHOOL SW - BALL DIAMOND BS #16,LAKEVIEW SCHOOL SW,BALL DIAMOND,-104.62650183300,50.43191285940
206,3100 20TH AVENUE,LAKEVIEW SCHOOL - BASKETBALL,LAKEVIEW SCHOOL,BASKETBALL,-104.62650607000,50.43272083790
207,3100 20TH AVE,LAKEVIEW SCHOOL - PLAYGROUND 3100 20TH AVE,LAKEVIEW SCHOOL,PLAYGROUND,-104.62564128100,50.43246155450
208,3100 20th Ave.,Lakeview - Public Elementary School,Lakeview - Public Elementary School,Public Elementary School,-104.62604270800,50.43237450080
209,140 GREENWOOD CRES,ST. JOSAPHAT SCHOOL S - PLAYGROUND 140 GREENWOOD CRES,ST. JOSAPHAT SCHOOL S,PLAYGROUND,-104.68066538100,50.47564024140
210,140 GREENWOOD CRESCENT,ST. JOSAPHAT SCHOOL PARK - BASKETBALL,ST. JOSAPHAT SCHOOL PARK,BASKETBALL,-104.68055199600,50.47610184280
211,140 GREENWOOD CRESCENT,ST. JOSAPHAT SCHOOL SW - BALL DIAMOND BS #208,ST. JOSAPHAT SCHOOL SW,BALL DIAMOND,-104.68172595900,50.47565922430
212,140 GREENWOOD CRES,ST. JOSAPHAT SCHOOL N - PLAYGROUND 140 GREENWOOD CRES,ST. JOSAPHAT SCHOOL N,PLAYGROUND,-104.68063276800,50.47628307850
213,140 Greenwood Cr.,St. Josaphat - Separate Elementary School,St. Josaphat - Separate Elementary School,Separate Elementary School,-104.68067607900,50.47589642990
214,1250 DOVER AVENUE,DOVER PARK - BALL DIAMOND,DOVER PARK,BALL DIAMOND,-104.59758163200,50.48289080290
215,1250 DOVER AVENUE,DOVER PARK - BALL DIAMOND,DOVER PARK,BALL DIAMOND,-104.59856693400,50.48293006310
216,303 Rink Ave,Fire Hall No. 6,OMAR DIXON Fire Hall,Fire,-104.66114324400,50.48784666870
217,20 HIND STREET,HIND PARK - OUTDOOR TENNIS,HIND PARK,OUTDOOR TENNIS,-104.68076815000,50.48591853260
218,20 HIND STREET,HIND PARK - OUTDOOR RINK UNBOARDED,HIND PARK,OUTDOOR RINK UNBOARDED,-104.68076173500,50.48589031590
219,20 HIND ST,HIND PARK - PLAYGROUND 20 HIND ST,HIND PARK,PLAYGROUND,-104.68114904600,50.48637708490
220,840 ATHOL ST,KITCHNER SCHOOL - PLAYGROUND 840 ATHOL ST,KITCHNER SCHOOL,PLAYGROUND,-104.62906655700,50.46593170590
221,840 ATHOL STREET,KITCHNER SCHOOL - BASKETBALL,KITCHNER SCHOOL,BASKETBALL,-104.62924317100,50.46512645400
222,840 ATHOL STREET,KITCHNER SCHOOL - ATHLETIC FIELD SOCCER ATHLETIC FIELD,KITCHNER SCHOOL,ATHLETIC FIELD,-104.62902405300,50.46489826880
223,840 ATHOL STREET,KITCHNER SCHOOL - BALL DIAMOND,KITCHNER SCHOOL,BALL DIAMOND,-104.62857393300,50.46473289480
224,840 Athol St.,Kitchener - Public Elementary School,Kitchener - Public Elementary School,Public Elementary School,-104.62903105300,50.46540396650
225,1401 MONTAGUE ST.,DEWDNEY - OUTDOOR POOL,DEWDNEY,OUTDOOR POOL,-104.62933078100,50.45630087740
226,3355 8TH AVE,DEWDNEY POOL PARK - PLAYGROUND 3355 8TH AVE,DEWDNEY POOL PARK,PLAYGROUND,-104.62853799900,50.45607806410
227,40 TREMAINE AVE,CRAIGIE PARK  - ATHLETIC FIELD SOCCER ATHLETIC FIELD,CRAIGIE PARK,ATHLETIC FIELD,-104.64477232300,50.49263906740
228,2124 ELPHINSTONE STREET,CONNAUGHT SCHOOL - ATHLETIC FIELD SOCCER ATHLETIC FIELD,CONNAUGHT SCHOOL,ATHLETIC FIELD,-104.63186072600,50.44434685830
229,2124 ELPHINSTONE ST,CONNAUGHT SCHOOL - PLAYGROUND 2124 ELPHINSTONE ST,CONNAUGHT SCHOOL,PLAYGROUND,-104.63232581700,50.44526991790
230,2124 ELPHINSTONE STREET,CONNAUGHT SCHOOL - BASKETBALL,CONNAUGHT SCHOOL,BASKETBALL,-104.63213638900,50.44465492610
231,2124 ELPHINSTONE STREET,CONNAUGHT SCHOOL SE - BALL DIAMOND BS #123,CONNAUGHT SCHOOL SE,BALL DIAMOND,-104.63142107200,50.44412845590
232,2124 ELPHINSTONE STREET,CONNAUGHT SCHOOL SW - BALL DIAMOND BS #124,CONNAUGHT SCHOOL SW,BALL DIAMOND,-104.63235380700,50.44411556690
233,2124 Elphinstone St.,Connaught - Public Elementary School,Connaught - Public Elementary School,Public Elementary School,-104.63179303600,50.44448122670
234,1132 MCTAVISH STREET,HERCHMER SCHOOL N - BALL DIAMOND BS #128,HERCHMER SCHOOL N,BALL DIAMOND,-104.63446857500,50.46126646330
235,1132 MCTAVISH STREET,HERCHMER SCHOOL S - BALL DIAMOND BS #133,HERCHMER SCHOOL S,BALL DIAMOND,-104.63436730600,50.46000884840
236,1132 MCTAVISH ST,HERCHMER SCHOOL - PLAYGROUND 1132 MCTAVISH ST,HERCHMER SCHOOL,PLAYGROUND,-104.63513662500,50.46083766590
237,1132 MCTAVISH STREET,HERCHMER SCHOOL - BASKETBALL,HERCHMER SCHOOL,BASKETBALL,-104.63486755800,50.46049619050
238,2015 9TH AVE N,NORTH EAST PARK NE - BALL DIAMOND BS #281 (AKA=REGINA MINOR GIRLS BALL),NORTH EAST PARK NE,BALL DIAMOND,-104.60712287700,50.48394484600
239,100 MASSEY RD.,MASSEY - OUTDOOR POOL,MASSEY,OUTDOOR POOL,-104.61037911300,50.41342830240
240,70 MASSEY ROAD,MASSEY EAST MULTI - ATHLETIC FIELD SOCCER ATHLETIC FIELD,MASSEY EAST MULTI,ATHLETIC FIELD,-104.61045992000,50.41464699630
241,70 MASSEY RD.,MURRAY BALFOUR - ARENA,MURRAY BALFOUR,ARENA,-104.61066783600,50.41404360040
242,3910 PRINCE OF WALES DR,WASCANA CREEK PARK - PLAYGROUND 3910 PRINCE OF WALES DR,WASCANA CREEK PARK,PLAYGROUND,-104.54740023300,50.41836148040
243,6215 WHELAN DRIVE,MACNEILL SCHOOL - ATHLETIC FIELD SOCCER ATHLETIC FIELD,MACNEILL SCHOOL,ATHLETIC FIELD,-104.66974783100,50.49786385270
244,6215 WHELAN DRIVE,MACNEILL SCHOOL - BASKETBALL,MACNEILL SCHOOL,BASKETBALL,-104.67101026200,50.49821321600
245,6215 WHELAN DRIVE,MACNEILL SCHOOL - BALL DIAMOND BS #215,MACNEILL SCHOOL,BALL DIAMOND,-104.67022815100,50.49798450460
246,6215 Whelan Dr.,MacNeill - Public Elementary School,MacNeill - Public Elementary School,Public Elementary School,-104.67033060700,50.49823736320
247,1127 N. ARNSON ST.,NORTHWEST LEISURE CENTRE - REC_NBHD FACILITY,NORTHWEST LEISURE CENTRE,REC_NBHD FACILITY,-104.67964138700,50.49545871180
248,1127 N. ARNASON RD.,DOUG WICKENHEISER - ARENA,DOUG WICKENHEISER,ARENA,-104.67826151400,50.49538671880
249,1127 N ARNASON ST,NORTHWEST LEISURE CENTRE - INDOOR POOL,NORTHWEST LEISURE CENTRE,INDOOR POOL,-104.67956863600,50.49547381950
250,560 ELPHINSTONE ST.,WHEAT CITY KINSMEN - ARENA,WHEAT CITY KINSMEN,ARENA,-104.63197638700,50.47005056190
251,560 ELPHINSTONE ST,REGENT POOL PARK - PLAYGROUND 560 ELPHINSTONE ST,REGENT POOL PARK,PLAYGROUND,-104.63386002100,50.47025696250
252,3600 MCKINLEY AVE.,REGENT - OUTDOOR POOL,REGENT,OUTDOOR POOL,-104.63329630800,50.47025606010
253,710 GRAHAM RD,HENRY BRAUN SCHOOL - PLAYGROUND 710 GRAHAM RD,HENRY BRAUN SCHOOL,PLAYGROUND,-104.53561632000,50.46235915250
254,710 GRAHAM RD,HENRY BRAUN PARK NW - BALL DIAMOND BS #113,HENRY BRAUN PARK NW,BALL DIAMOND,-104.53443170600,50.46238026490
255,710 GRAHAM RD,HENRY BRAUN SCHOOL - BASKETBALL,HENRY BRAUN SCHOOL,BASKETBALL,-104.53437378000,50.46174976960
256,710 GRAHAM RD,HENRY BRAUN SCHOOL - PLAYGROUND 710 GRAHAM RD,HENRY BRAUN SCHOOL,PLAYGROUND,-104.53574103400,50.46217544750
257,710 Graham Rd.,Henry Braun - Public Elementary School,Henry Braun - Public Elementary School,Public Elementary School,-104.53497995800,50.46194772690
258,3355 6TH AVENUE,ALBERT SCOTT/SCOTT COLLEGIATE NW - BALL DIAMOND BS #141,ALBERT SCOTT/SCOTT COLLEGIATE NW,BALL DIAMOND,-104.63085604800,50.45966263730
259,3355 6TH AVENUE,ALBERT SCOTT/SCOTT COLLEGIATE NE - BALL DIAMOND BS #140,ALBERT SCOTT/SCOTT COLLEGIATE NE,BALL DIAMOND,-104.62852685800,50.45966948830
260,25 MICHENER DR,UNIVERSITY PARK - OUTDOOR RINK SHELTER,UNIVERSITY PARK,OUTDOOR RINK SHELTER,-104.56276040400,50.43130084460
261,165 WINDFIELD ROAD,UNIVERSITY PARK - OUTDOOR RINK UNBOARDED,UNIVERSITY PARK,OUTDOOR RINK UNBOARDED,-104.56179326600,50.43140221730
262,25 MICHENER DR,UNIVERSITY PARK - PLAYGROUND 25 MICHENER DR,UNIVERSITY PARK,PLAYGROUND,-104.56197423500,50.43110532770
263,165 WINDFIELD ROAD,UNIVERSITY PARK - OUTDOOR RINK BOARDED,UNIVERSITY PARK,OUTDOOR RINK BOARDED,-104.56324888400,50.43144220350
264,1301 PASQUA ST,PASQUA/7TH AVE. PARK - PLAYGROUND 1301 PASQUA ST,PASQUA/7TH AVE. PARK,PLAYGROUND,-104.64014243400,50.45799454730
265,71 CAMERON ST,CAMERON PARK - PLAYGROUND 71 CAMERON ST,CAMERON PARK,PLAYGROUND,-104.62441682500,50.41135823590
266,20 WEEKES CR.,UPLANDS COMMUNITY CENTRE - REC_NBHD FACILITY,UPLANDS COMMUNITY CENTRE,REC_NBHD FACILITY,-104.60504877800,50.49583597990
267,40 WEEKES CRESCENT,RUTH PAWSON SCHOOL - ATHLETIC FIELD SOCCER ATHLETIC FIELD,RUTH PAWSON SCHOOL,ATHLETIC FIELD,-104.60567518300,50.49675147060
268,40 WEEKES CRESCENT,RUTH PAWSON SCHOOL - BASKETBALL,RUTH PAWSON SCHOOL,BASKETBALL,-104.60495539700,50.49629962160
269,40 WEEKES CRES,RUTH PAWSON SCHOOL - PLAYGROUND 40 WEEKES CRES,RUTH PAWSON SCHOOL,PLAYGROUND,-104.60454945200,50.49566932060
270,40 WEEKES CRES,RUTH PAWSON SCHOOL - OUTDOOR RINK SHELTER,RUTH PAWSON SCHOOL,OUTDOOR RINK SHELTER,-104.60514078500,50.49701006100
271,40 Weeks Cr.,Ruth Pawson - Public Elementary School,Ruth Pawson - Public Elementary School,Public Elementary School,-104.60526075100,50.49613231860
272,348 BROAD ST,HIGHLAND - CURLING CLUB,HIGHLAND,CURLING CLUB,-104.60720753100,50.47297425150
273,103 FAIRVIEW ROAD,M.J. COLDWELL SCHOOL - BALL DIAMOND BS #241,M.J. COLDWELL SCHOOL,BALL DIAMOND,-104.61238048600,50.49062277240
274,103 FAIRVIEW ROAD,M.J. COLDWELL SCHOOL - BASKETBALL,M.J. COLDWELL SCHOOL,BASKETBALL,-104.61199661600,50.49078832520
275,103 Fairview Rd.,M.J. Coldwell - Public Elementary School,M.J. Coldwell - Public Elementary School,Public Elementary School,-104.61185374700,50.49080271120
276,1801 MONTREAL ST,CORE COMMUNITY PARK - PLAYGROUND 1801 MONTREAL ST,CORE COMMUNITY PARK,PLAYGROUND,-104.59810581500,50.45000113870
277,1801 MONTREAL ST,CORE COMMUNITY PARK - BASKETBALL,CORE COMMUNITY PARK,BASKETBALL,-104.59799898900,50.45019414200
278,4315 COLLEGE AVENUE,LEWVAN FIELDS/ST. JAMES PARK - BALL DIAMOND BS #164,LEWVAN FIELDS/ST. JAMES PARK,BALL DIAMOND,-104.64266489400,50.44060005090
279,84 OAKVIEW DRIVE,OAKVIEW PARK  - ATHLETIC FIELD SOCCER ATHLETIC FIELD,OAKVIEW PARK,ATHLETIC FIELD,-104.61366581700,50.48785705750
280,3303 GRANT ROAD,COMMUNITY GARDENS BUILDING,Wascana Centre,Wascana Centre,-104.59757892800,50.40702134880
281,1069 E 14TH AVENUE,COCHRANE HIGH SCHOOL - BASKETBALL,COCHRANE HIGH SCHOOL,BASKETBALL,-104.56720292900,50.44363614830
282,1069 E. 14th Ave.,Cochrane High School - Public High School,Cochrane High School - Public High School,Public High School,-104.56822807700,50.44295946410
283,335 N GARNET ST,GLADYS MCDONALD SCHOOL - BASKETBALL,GLADYS MCDONALD SCHOOL,BASKETBALL,-104.62600214700,50.48115644480
284,335 N GARNET ST,GLADYS MCDONALD SCHOOL - PLAYGROUND 335 N GARNET ST,GLADYS MCDONALD SCHOOL,PLAYGROUND,-104.62588231600,50.48133374290
285,335 N. Garnet St.,Gladys McDonald - Public Elementary School,Gladys McDonald - Public Elementary School,Public Elementary School,-104.62593031300,50.48094422110
286,2960 WASCANA DRIVE,WASCANA PLACE ADMINISTRATION BUILDING,Wascana Centre,Wascana Centre,-104.60673058000,50.43248431810
287,1399 N LAKERIDGE RD,THERESA STEVENSON PARK - BALL DIAMOND BS #86,THERESA STEVENSON PARK,BALL DIAMOND,-104.65443534700,50.50139785420
288,139 TORONTO STREET,MCDERMID SCHOOL - ATHLETIC FIELD SOCCER ATHLETIC FIELD,MCDERMID SCHOOL,ATHLETIC FIELD,-104.59730053900,50.47669390960
289,139 TORONTO STREET,MCDERMID SCHOOL - OUTDOOR RINK UNBOARDED,MCDERMID SCHOOL,OUTDOOR RINK UNBOARDED,-104.59754636000,50.47675111420
290,139 TORONTO STREET,MCDERMID SCHOOL - BASKETBALL,MCDERMID SCHOOL,BASKETBALL,-104.59826978300,50.47640739930
291,125 TORONTO ST,MCDERMID SCHOOL - PLAYGROUND 125 TORONTO ST,MCDERMID SCHOOL,PLAYGROUND,-104.59802881100,50.47676470260
292,125 TORONTO ST,MCDERMID SCHOOL - OUTDOOR RINK SHELTER,MCDERMID SCHOOL,OUTDOOR RINK SHELTER,-104.59762245300,50.47690573920
293,139 TORONTO STREET,MCDERMID SCHOOL - BALL DIAMOND BS #250,MCDERMID SCHOOL,BALL DIAMOND,-104.59704961800,50.47582673320
294,139 Toronto St.,McDermid - Public Elementary School,McDermid - Public Elementary School,Public Elementary School,-104.59772330600,50.47611227500
295,1564 N DEVONSHIRE DR,EWART PARK - PLAYGROUND 1564 N DEVONSHIRE DR,EWART PARK,PLAYGROUND,-104.66785684200,50.50431217800
296,2128 DUFFERIN RD,DAFFODIL PARK - PLAYGROUND 2128 DUFFERIN RD,DAFFODIL PARK,PLAYGROUND,-104.60729191800,50.40409509700
297,424 UNIVERSITY PARK DRIVE,GARDINER PARK - OUTDOOR TENNIS,GARDINER PARK,OUTDOOR TENNIS,-104.55384735400,50.43759497330
298,424 UNIVERSITY PARK DR,GARDINER PARK - PLAYGROUND 424 UNIVERSITY PARK DR,GARDINER PARK,PLAYGROUND,-104.55309626600,50.43757209910
299,3350 7TH AVENUE,SCOTT COLLEGIATE - OUTDOOR TENNIS,SCOTT COLLEGIATE,OUTDOOR TENNIS,-104.63036751300,50.45856290270
300,1264 ATHOL ST.,ALBERT SCOTT COMMUNITY CENTRE - REC_NBHD FACILITY,ALBERT SCOTT COMMUNITY CENTRE,REC_NBHD FACILITY,-104.62904443200,50.45864744670
301,1264 ATHOL ST,NORTH CENTRAL COMMUNITY SERVICE CENTRE,NORTH CENTRAL COMMUNITY SERVICE CENTRE,Police,-104.62860273100,50.45862301330
302,3350 7th Ave.,Scott Collegiate - Public High School,Scott Collegiate - Public High School,Public High School,-104.62957418100,50.45873347210
303,5310 4TH AVENUE,ROSEMONT SCHOOL PARK - OUTDOOR RINK BOARDED,ROSEMONT SCHOOL PARK,OUTDOOR RINK BOARDED,-104.65658414900,50.46343863430
304,5310 4TH AVENUE,ROSEMONT SCHOOL PARK - OUTDOOR RINK UNBOARDED,ROSEMONT SCHOOL PARK,OUTDOOR RINK UNBOARDED,-104.65665907100,50.46311507780
305,5310 4TH AVENUE,ROSEMONT SCHOOL PARK - BALL DIAMOND BS #137,ROSEMONT SCHOOL PARK,BALL DIAMOND,-104.65688781400,50.46403122440
306,3010 PRINCESS ST,CAEN PARK - PLAYGROUND 3010 PRINCESS ST,CAEN PARK,PLAYGROUND,-104.63662357100,50.43133721200
307,6015 MIKKELSON DRIVE,ST. FRANCIS PARK NE - BALL DIAMOND BS #158,ST. FRANCIS PARK NE,BALL DIAMOND,-104.66691270700,50.46474229280
308,6015 MIKKELSON DRIVE,ST. FRANCIS PARK SE - BALL DIAMOND BS #160,ST. FRANCIS PARK SE,BALL DIAMOND,-104.66796384900,50.46406822430
309,6015 MIKKELSON DRIVE,ST. FRANCIS PARK - OUTDOOR RINK UNBOARDED,ST. FRANCIS PARK,OUTDOOR RINK UNBOARDED,-104.66720642400,50.46522509610
310,6015 MIKKELSON DR,ST. FRANCIS PARK - OUTDOOR RINK SHELTER,ST. FRANCIS PARK,OUTDOOR RINK SHELTER,-104.66690349100,50.46536586390
311,6015 MIKKELSON DRIVE,ST. FRANCIS PARK NW - BALL DIAMOND BS #157,ST. FRANCIS PARK NW,BALL DIAMOND,-104.66808757300,50.46482342210
312,1 FIRST NATIONS WAY,First Nations University of Canada - Regina,First Nations University of Canada - Regina,Other School,-104.58316187300,50.41853055270
313,1 FIRST NATIONS WAY,SIFC BUILDING,University of Regina,University of Regina,-104.58214136200,50.41937275800
314,3118 14TH AVENUE,HOLY ROSARY - ATHLETIC FIELD SOCCER ATHLETIC FIELD,HOLY ROSARY,ATHLETIC FIELD,-104.62754494600,50.44428946990
315,3118 14TH AVENUE,HOLY ROSARY PARK - BALL DIAMOND,HOLY ROSARY PARK,BALL DIAMOND,-104.62796070000,50.44413769250
316,1500 Royal St.,Luther High School - 1500 Royal St.,Luther High School - 1500 Royal St.,Other School,-104.65172135600,50.45389206200
317,5002 MCTAVISH STREET,NEW ALBERT PARK - ATHLETIC FIELD SOCCER ATHLETIC FIELD,NEW ALBERT PARK,ATHLETIC FIELD,-104.63605536400,50.39863398010
318,5002 MCTAVISH ST,NEW ALBERT PARK - PLAYGROUND 5002 MCTAVISH ST,NEW ALBERT PARK,PLAYGROUND,-104.63495168300,50.39844853230
319,342 N HALIFAX STREET,ST. ANNE PARK - BALL DIAMOND BS #256,ST. ANNE PARK,BALL DIAMOND,-104.60442254200,50.48265495030
320,342 N HALIFAX STREET,ST. ANNE PARK - ATHLETIC FIELD SOCCER ATHLETIC FIELD,ST. ANNE PARK,ATHLETIC FIELD,-104.60507869500,50.48296737450
321,1225 E 9TH AVENUE,GLEN ELM SCHOOL - BASKETBALL,GLEN ELM SCHOOL,BASKETBALL,-104.56597056500,50.45288856520
322,1225 E. 9th Ave.,Glen Elm - Public Elementary School,Glen Elm - Public Elementary School,Public Elementary School,-104.56567635000,50.45319025530
323,520 E ASSINIBOINE AVENUE,PRODUCTION GREENHOUSE,Wascana Centre,Wascana Centre,-104.57676670000,50.42539056840
324,520 E ASSINIBOINE AVENUE,WINTER WATERFOWL DISPLAY BUILDING,Wascana Centre,Wascana Centre,-104.57728923000,50.42455918830
325,132 Victoria Ave,Fire Hall No. 7,LOUIS YANKO Fire Hall,Fire,-104.58339610200,50.44753274360
326,2930 E 7TH AVENUE,HOWELL PARK - OUTDOOR TENNIS,HOWELL PARK,OUTDOOR TENNIS,-104.54328427000,50.45930075140
327,1100 MCINTOSH STREET,MARTIN COLLEGIATE - BALL DIAMOND BS #135,MARTIN COLLEGIATE,BALL DIAMOND,-104.65638554000,50.46267442520
328,1100 MCINTOSH STREET,MARTIN COLLEGIATE SOUTH - ATHLETIC FIELD SOCCER ATHLETIC FIELD,MARTIN COLLEGIATE SOUTH,ATHLETIC FIELD,-104.65609338100,50.46155164710
329,1100 MCINTOSH STREET,MARTIN COLLEGIATE NORTH - ATHLETIC FIELD SOCCER ATHLETIC FIELD,MARTIN COLLEGIATE NORTH,ATHLETIC FIELD,-104.65446053400,50.46247625190
330,1100 MCINTOSH STREET,MARTIN COLLEGIATE - OUTDOOR TENNIS,MARTIN COLLEGIATE,OUTDOOR TENNIS,-104.65498986300,50.46191988110
331,1100 McIntosh St.,Martin Collegiate - Public High School,Martin Collegiate - Public High School,Public High School,-104.65458453800,50.46177876190
332,2190 VICTORIA AVE,VICTORIA PARK - PLAYGROUND 2190 VICTORIA AVE,VICTORIA PARK,PLAYGROUND,-104.61167330900,50.44746021040
333,145 DOROTHY STREET,DIEPPE SCHOOL - OUTDOOR RINK UNBOARDED,DIEPPE SCHOOL,OUTDOOR RINK UNBOARDED,-104.68109018800,50.45880251110
334,145 DOROTHY ST,DIEPPE SCHOOL W - PLAYGROUND 145 DOROTHY ST,DIEPPE SCHOOL W,PLAYGROUND,-104.68087017900,50.45858432290
335,145 DOROTHY STREET,DIEPPE SCHOOL  - BALL DIAMOND BS #126,DIEPPE SCHOOL,BALL DIAMOND,-104.68106133800,50.45874181360
336,145 DOROTHY STREET,DIEPPE SCHOOL - BASKETBALL,DIEPPE SCHOOL,BASKETBALL,-104.67961697300,50.45852323970
337,145 DOROTHY ST,DIEPPE SCHOOL - OUTDOOR RINK SHELTER,DIEPPE SCHOOL,OUTDOOR RINK SHELTER,-104.68087249600,50.45931783520
338,145 DOROTHY ST,DIEPPE SCHOOL E - PLAYGROUND 145 DOROTHY ST,DIEPPE SCHOOL E,PLAYGROUND,-104.67934978200,50.45838072880
339,145 DOROTHY STREET,DIEPPE SCHOOL - ATHLETIC FIELD SOCCER ATHLETIC FIELD,DIEPPE SCHOOL,ATHLETIC FIELD,-104.67965236600,50.45870583590
340,145 Dorothy St.,Dieppe - Public Elementary School,Dieppe - Public Elementary School,Public Elementary School,-104.68031623700,50.45871548710
341,750 N WINNIPEG ST,MOUNT PLEASANT SPORT PARK - OUTDOOR RINK SHELTER,MOUNT PLEASANT SPORT PARK,OUTDOOR RINK SHELTER,-104.59728507200,50.48610840230
342,555 N MONTREAL STREET,SPEED SKATING OVAL - OUTDOOR RINK OTHER,SPEED SKATING OVAL,OUTDOOR RINK OTHER,-104.59689967900,50.48560261030
343,625 Elphinstone St.,St. Luke - Separate Elementary School,St. Luke - Separate Elementary School,Separate Elementary School,-104.63038648900,50.46887949690
344,1314 ELPHINSTONE STREET,SACRED HEART SCHOOL - BALL DIAMOND,SACRED HEART SCHOOL,BALL DIAMOND,-104.63235974200,50.45737955630
345,1314 ELPHINSTONE ST,SACRED HEART SCHOOL - PLAYGROUND 1314 ELPHINSTONE ST,SACRED HEART SCHOOL,PLAYGROUND,-104.63140385500,50.45806536980
346,1314 ELPHINSTONE ST,SACRED HEART SCHOOL - BASKETBALL,SACRED HEART SCHOOL,BASKETBALL,-104.63176001900,50.45803779570
347,1314 ELPHINSTONE STREET,SACRED HEART SCHOOL - BALL DIAMOND,SACRED HEART SCHOOL,BALL DIAMOND,-104.63236507400,50.45812822830
348,1314 Elphinstone St.,Sacred Heart - Separate Elementary School,Sacred Heart - Separate Elementary School,Separate Elementary School,-104.63180940500,50.45751576800
349,5560 LEIBEL CRES,LAKERIDGE PARK S - PLAYGROUND 5560 LEIBEL CRES,LAKERIDGE PARK S,PLAYGROUND,-104.66073979000,50.49859722570
350,6530 HIRD CRES,HIRD PARK - PLAYGROUND 6530 HIRD CRES,HIRD PARK,PLAYGROUND,-104.67379543500,50.50424731520
351,1501 BOND ST,GLEN ELM PARK - OUTDOOR RINK SHELTER,GLEN ELM PARK,OUTDOOR RINK SHELTER,-104.56715570100,50.45333663720
352,1501 BOND ST,GLEN ELM PARK NW - PLAYGROUND 1501 BOND ST,GLEN ELM PARK NW,PLAYGROUND,-104.56734972300,50.45320446890
353,1601 BOND STREET,GLEN ELM PARK - OUTDOOR RINK UNBOARDED,GLEN ELM PARK,OUTDOOR RINK UNBOARDED,-104.56726173600,50.45300851890
354,1601 BOND STREET,GLEN ELM PARK - BALL DIAMOND BS #67,GLEN ELM PARK,BALL DIAMOND,-104.56758976800,50.45252021170
355,1501 BOND ST,GLEN ELM PARK SE - PLAYGROUND 1501 BOND ST,GLEN ELM PARK SE,PLAYGROUND,-104.56530094800,50.45279843580
356,1601 BOND STREET,GLEN ELM PARK - OUTDOOR RINK BOARDED,GLEN ELM PARK,OUTDOOR RINK BOARDED,-104.56682553800,50.45299641910
357,1601 BOND STREET,GLEN ELM PARK - SPRAYPAD 1501 BOND ST @ 9TH AVE,GLEN ELM PARK,SPRAYPAD,-104.56753505200,50.45327977590
358,2445 ALBERT STREET,ROYAL SASKATCHEWAN MUSEUM,Wascana Centre,Wascana Centre,-104.61657775300,50.43975534230
359,93 LINCOLN DRIVE,DR. A.E. PERRY SCHOOL - OUTDOOR RINK BOARDED,DR. A.E. PERRY SCHOOL,OUTDOOR RINK BOARDED,-104.63280567200,50.40198776510
360,93 LINCOLN DRIVE,DR. A.E. PERRY SCHOOL - OUTDOOR RINK UNBOARDED,DR. A.E. PERRY SCHOOL,OUTDOOR RINK UNBOARDED,-104.63250683700,50.40211946630
361,40 COWIE RD,DR. A.E. PERRY SCHOOL - BASKETBALL,DR. A.E. PERRY SCHOOL,BASKETBALL,-104.63258907800,50.40239940270
362,93 Lincoln Dr.,Dr. A. E. Perry - Public Elementary School,Dr. A. E. Perry - Public Elementary School,Public Elementary School,-104.63193424800,50.40229052130
363,2910 E SHOOTER DR,ST. MARGUERITE BOURGEOYS SCHOOL - PLAYGROUND 2910 E SHOOTER DR,ST. MARGUERITE BOURGEOYS SCHOOL,PLAYGROUND,-104.54166132500,50.43592530390
364,2910 E SHOOTER DRIVE,ST. MARGUERITE BOURGEOYS SCHOOL - BASKETBALL,ST. MARGUERITE BOURGEOYS SCHOOL,BASKETBALL,-104.54135778200,50.43645913950
365,2910 E. Shooter Dr.,St. Marguerite Bourgeoys - Separate Elementary School,St. Marguerite Bourgeoys - Separate Elementary School,Separate Elementary School,-104.54143185500,50.43603007980
366,20 WEEKES CRES,RUTH PAWSON PARK - PLAYGROUND 20 WEEKES CRES,RUTH PAWSON PARK,PLAYGROUND,-104.60405184200,50.49651072410
367,18 WEEKES CRESCENT,RUTH PAWSON PARK - BALL DIAMOND BS #253,RUTH PAWSON PARK,BALL DIAMOND,-104.60491588700,50.49691834320
368,2231 SCARTH STREET,CENTRAL PARK - BALL DIAMOND BS #93,CENTRAL PARK,BALL DIAMOND,-104.60968952800,50.44374986160
369,2501 GRANT RD,GRANT ROAD SCHOOL - PLAYGROUND 2501 GRANT RD,GRANT ROAD SCHOOL,PLAYGROUND,-104.61222619000,50.40299370840
370,2501 GRANT RD,GRANT ROAD SCHOOL - BASKETBALL,GRANT ROAD SCHOOL,BASKETBALL,-104.61190298500,50.40242513770
371,2501 GRANT ROAD,GRANT ROAD - PLAYGROUND 2501 GRANT ROAD,GRANT ROAD,PLAYGROUND,-104.61166725000,50.40224534520
372,2501 Grant Rd.,Grant Road - Public Elementary School,Grant Road - Public Elementary School,Public Elementary School,-104.61228867400,50.40252237340
373,2635 E PHILIP ROAD,VARSITY PARK - OUTDOOR TENNIS,VARSITY PARK,OUTDOOR TENNIS,-104.54659212000,50.42331109800
374,2635 E PHILIP ROAD,VARSITY PARK - ATHLETIC FIELD SOCCER ATHLETIC FIELD,VARSITY PARK,ATHLETIC FIELD,-104.54643748600,50.42387929850
375,2635 E PHILIP ROAD,VARSITY PARK - SPRAYPAD 2635 E PHILIP RD,VARSITY PARK,SPRAYPAD,-104.54673194900,50.42294864380
376,2635 E PHILIP RD,VARSITY PARK - PLAYGROUND 2635 E PHILIP RD,VARSITY PARK,PLAYGROUND,-104.54651632900,50.42291755510
377,3175 HARDING ST,REVES PARK - PLAYGROUND 3175 HARDING ST,REVES PARK,PLAYGROUND,-104.53947027000,50.42977376860
378,4141 WASCANA PARKWAY,ISM BUILDING,University of Regina,University of Regina,-104.59139575900,50.41500304390
379,4141 WASCANA PARKWAY,INFORMATION TECHNOLOGY BUILDING,University of Regina,University of Regina,-104.58972185800,50.41344695530
380,4141 WASCANA PARKWAY,PTRC BUILDING,University of Regina,University of Regina,-104.59005151900,50.41443260340
381,4141 WASCANA PARKWAY,TWO RESEARCH DR,University of Regina,University of Regina,-104.58983435400,50.41529909120
382,87 MCSHERRY CRESCENT,BASTEDO PARK  - ATHLETIC FIELD SOCCER ATHLETIC FIELD,BASTEDO PARK,ATHLETIC FIELD,-104.67182781700,50.47244452620
383,87 MCSHERRY CRES,BASTEDO PARK - PLAYGROUND 87 MCSHERRY CRES,BASTEDO PARK,PLAYGROUND,-104.67090501900,50.47289325180
384,2601 CORONATION STREET,SHELDON WILLIAMS COLLEGIATE - BASKETBALL,SHELDON WILLIAMS COLLEGIATE,BASKETBALL,-104.63438994300,50.43564239130
385,2601 CORONATION STREET,SHELDON WILLIAMS MULTI - ATHLETIC FIELD MULTI-USE ATHLETIC FIELD,SHELDON WILLIAMS MULTI,ATHLETIC FIELD,-104.63489308900,50.43642627030
386,2601 CORONATION STREET,SHELDON WILLIAMS COLLEGIATE - OUTDOOR TENNIS,SHELDON WILLIAMS COLLEGIATE,OUTDOOR TENNIS,-104.63434151500,50.43567301840
387,2601 CORONATION STREET,SHELDON WILLIAMS COLLEGIATE - BALL DIAMOND BS #33,SHELDON WILLIAMS COLLEGIATE,BALL DIAMOND,-104.63366234200,50.43620881210
388,2601 Coronation St.,Sheldon-Williams Collegiate - Public High School,Sheldon-Williams Collegiate - Public High School,Public High School,-104.63473295500,50.43641354730
389,1243 ROSSIE DRIVE,PARKRIDGE PARK - SPRAYPAD 1243 ROSSIE DR  @7TH AVE,PARKRIDGE PARK,SPRAYPAD,-104.53297196000,50.46038669730
390,1243 ROSSIE DR,PARKRIDGE PARK - PLAYGROUND 1243 ROSSIE DR,PARKRIDGE PARK,PLAYGROUND,-104.53313135800,50.46031815400
391,1243 ROSSIE DRIVE,PARKRIDGE PARK - ROSSIE FITNESS CIRCUIT - PLAYGROUND 1243 ROSSIE DRIVE,PARKRIDGE PARK - ROSSIE FITNESS CIRCUIT,PLAYGROUND,-104.53399058300,50.45788300090
392,2900 13TH AVE.,CATHEDRAL NEIGHBOURHOOD CENTRE - REC_NBHD FACILITY,CATHEDRAL NEIGHBOURHOOD CENTRE,REC_NBHD FACILITY,-104.62282064700,50.44571109450
393,4199 CASTLE RD,ELSIE DORSEY PARK - OUTDOOR RINK SHELTER,ELSIE DORSEY PARK,OUTDOOR RINK SHELTER,-104.59804403000,50.41034025290
394,4199 CASTLE RD,ELSIE DORSEY PARK - PLAYGROUND 4199 CASTLE RD,ELSIE DORSEY PARK,PLAYGROUND,-104.59779097800,50.41025849330
395,4199 CASTLE ROAD,ELSIE DORSEY PARK - OUTDOOR RINK UNBOARDED,ELSIE DORSEY PARK,OUTDOOR RINK UNBOARDED,-104.59809414900,50.41023439340
396,4199 CASTLE ROAD,ELSIE DORSEY PARK - BALL DIAMOND BS #10,ELSIE DORSEY PARK,BALL DIAMOND,-104.59864644900,50.41006568120
397,3901 PRINCESS DR,ATHABASCA SCHOOL - PLAYGROUND 3901 PRINCESS DR,ATHABASCA SCHOOL,PLAYGROUND,-104.63852154000,50.43568982130
398,3901 PRINCESS DRIVE,ATHABASCA SCHOOL - BALL DIAMOND BS #57,ATHABASCA SCHOOL,BALL DIAMOND,-104.63905462300,50.43572285040
399,3901 PRINCESS DR,ATHABASCA SCHOOL - BASKETBALL,ATHABASCA SCHOOL,BASKETBALL,-104.63849644200,50.43606728650
400,265 N ARGYLE STREET,THOM COLLEGIATE - BALL DIAMOND BS #263,THOM COLLEGIATE,BALL DIAMOND,-104.62937083100,50.48007154630
401,265 N ARGYLE STREET,THOM COLLEGIATE - OUTDOOR TENNIS,THOM COLLEGIATE,OUTDOOR TENNIS,-104.63072786700,50.48035031650
402,265 Argyle St. N.,Thom Collegiate - Public High School,Thom Collegiate - Public High School,Public High School,-104.63089344100,50.48059332380
403,130 BROTHERTON AVE.,CLARENCE MAHON - ARENA,CLARENCE MAHON,ARENA,-104.55528964400,50.45286988970
404,130 BROTHERTON AVE,MAHON ARENA - PLAYGROUND 130 BROTHERTON AVE,MAHON ARENA,PLAYGROUND,-104.55457206900,50.45284269080
405,130 BROTHERTON AVENUE,MAHON - OUTDOOR TENNIS,MAHON,OUTDOOR TENNIS,-104.55504996600,50.45342146710
406,431 HAMILTON STREET,ST. MICHAEL SCHOOL - BALL DIAMOND BS #258,ST. MICHAEL SCHOOL,BALL DIAMOND,-104.60822917200,50.47129222440
407,431 HAMILTON STREET,ST. MICHAEL SCHOOL - ATHLETIC FIELD SOCCER ATHLETIC FIELD,ST. MICHAEL SCHOOL,ATHLETIC FIELD,-104.60838415700,50.47193167510
408,431 HAMILTON STREET,ST. MICHAEL SCHOOL - BASKETBALL,ST. MICHAEL SCHOOL,BASKETBALL,-104.60878630000,50.47198641240
409,431 HAMILTON ST,ST. MICHAEL SCHOOL - PLAYGROUND 431 HAMILTON ST,ST. MICHAEL SCHOOL,PLAYGROUND,-104.60909165800,50.47133726140
410,431 Hamilton St.,St. Michael - Separate Elementary School,St. Michael - Separate Elementary School,Separate Elementary School,-104.60851157400,50.47179332750
411,4510 QUEEN ST,ETHEL MILLIKEN SCHOOL - PLAYGROUND 4510 QUEEN ST,ETHEL MILLIKEN SCHOOL,PLAYGROUND,-104.63725619400,50.40801880670
412,4510 Queen St.,Ethel Milliken - Public Elementary School,Ethel Milliken - Public Elementary School,Public Elementary School,-104.63779166400,50.40837327370
413,1955 RETALLACK STREET,LUCY ELEY PARK - ATHLETIC FIELD SOCCER ATHLETIC FIELD,LUCY ELEY PARK,ATHLETIC FIELD,-104.62172083000,50.44805974530
414,1915 RETALLACK ST,LUCY ELEY PARK - PLAYGROUND 1915 RETALLACK ST,LUCY ELEY PARK,PLAYGROUND,-104.62201008800,50.44779544820
415,2530 E ASSINIBOINE AVE,W.S. HAWRYLAK SCHOOL - PLAYGROUND 2530 E ASSINIBOINE AVE,W.S. HAWRYLAK SCHOOL,PLAYGROUND,-104.54761429100,50.42241385240
416,2530 E ASSINIBOINE AVENUE,W.S. HAWRYLAK SCHOOL - BASKETBALL,W.S. HAWRYLAK SCHOOL,BASKETBALL,-104.54674935200,50.42227358430
417,2530 E ASSINIBOINE AVENUE,W.S. HAWRYLAK SCHOOL - BALL DIAMOND BS #75,W.S. HAWRYLAK SCHOOL,BALL DIAMOND,-104.54830569100,50.42210486860
418,2530 E ASSINIBOINE AVENUE,W.S. HAWRYLAK SCHOOL - OUTDOOR RINK UNBOARDED,W.S. HAWRYLAK SCHOOL,OUTDOOR RINK UNBOARDED,-104.54840968800,50.42248722050
419,2530 E. Assiniboine Ave.,W. S. Hawrylak - Public Elementary School,W. S. Hawrylak - Public Elementary School,Public Elementary School,-104.54729199500,50.42222116260
420,750 N WINNIPEG STREET,CURRIE FIELD - BALL DIAMOND BS #289,CURRIE FIELD,BALL DIAMOND,-104.59614532900,50.48798696450
421,750 N WINNIPEG STREET,MOUNT PLEASANT SOUTH SOCCER - ATHLETIC FIELD SOCCER ATHLETIC FIELD,MOUNT PLEASANT SOUTH SOCCER,ATHLETIC FIELD,-104.59589497000,50.48954314420
422,750 N WINNIPEG STREET,MOUNT PLEASANT SPORT PARK - OUTDOOR TENNIS,MOUNT PLEASANT SPORT PARK,OUTDOOR TENNIS,-104.60226824400,50.48959178660
423,750 N WINNIPEG STREET,MOUNT PLEASANT KAPLAN FIELD WASHROOM - SEASONAL WASHROOM,MOUNT PLEASANT KAPLAN FIELD WASHROOM,SEASONAL WASHROOM,-104.60080331400,50.48822734160
424,750 N WINNIPEG ST,CURRIE PRACTICE FIELD - ATHLETIC FIELD,CURRIE PRACTICE FIELD,ATHLETIC FIELD,-104.59552992800,50.48855393690
425,750 N WINNIPEG STREET,MOUNT PLEASANT SPORTS PARK - BALL DIAMOND BS #268,MOUNT PLEASANT SPORTS PARK,BALL DIAMOND,-104.60127836800,50.49120773020
426,750 N WINNIPEG STREET,MOUNT PLEASANT SOCCER WASHROOM - SEASONAL WASHROOM,MOUNT PLEASANT SOCCER WASHROOM,SEASONAL WASHROOM,-104.59698481600,50.48980068170
427,750 N WINNIPEG STREET,LIVINGSTONE FOOTBALL - ATHLETIC FIELD MULTI-USE ATHLETIC FIELD,LIVINGSTONE FOOTBALL,ATHLETIC FIELD,-104.59833384000,50.48705890570
428,750 N WINNIPEG STREET,MOUNT PLEASANT MINI PITCH - ATHLETIC FIELD SOCCER ATHLETIC FIELD,MOUNT PLEASANT MINI PITCH,ATHLETIC FIELD,-104.59650667900,50.48672512850
429,750 N WINNIPEG STREET,MOUNT PLEASANT NORTH SOCCER - ATHLETIC FIELD SOCCER ATHLETIC FIELD,MOUNT PLEASANT NORTH SOCCER,ATHLETIC FIELD,-104.59595400100,50.49079788510
430,750 N WINNIPEG STREET,MOUNT PLEASANT CURRIE FIELD WASHROOM - SEASONAL WASHROOM,MOUNT PLEASANT CURRIE FIELD WASHROOM,SEASONAL WASHROOM,-104.59588447800,50.48841112230
431,750 N WINNIPEG STREET,KAPLAN FIELD - BALL DIAMOND BS #288,KAPLAN FIELD,BALL DIAMOND,-104.60119458100,50.48790649970
432,2735 LACON STREET,DOMINION PARK  - ATHLETIC FIELD SOCCER ATHLETIC FIELD,DOMINION PARK,ATHLETIC FIELD,-104.56884678500,50.43539094970
433,4055 15TH AVE,LES SHERMAN SOCCER - ATHLETIC FIELD SOCCER ATHLETIC FIELD,LES SHERMAN SOCCER,ATHLETIC FIELD,-104.63492563900,50.44192998130
434,4055 15TH AVE,LES SHERMAN PARK NORTH - PLAYGROUND 4055 15TH AVE,LES SHERMAN PARK NORTH,PLAYGROUND,-104.63453421900,50.44074905770
435,2404 ELPHINSTONE STREET,LES SHERMAN MULTI - ATHLETIC FIELD MULTI-USE ATHLETIC FIELD,LES SHERMAN MULTI,ATHLETIC FIELD,-104.63478358600,50.44163759920
436,2420 ELPHINSTONE ST.,NEIL BALKWILL CIVIC ARTS CENTRE - REC_NBHD FACILITY,NEIL BALKWILL CIVIC ARTS CENTRE,REC_NBHD FACILITY,-104.63279807100,50.44050362690
437,2404 ELPHINSTONE STREET,LES SHERMAN PARK NORTH - BALL DIAMOND BS #180,LES SHERMAN PARK NORTH,BALL DIAMOND,-104.63392995200,50.44024886990
438,35 LAWSON ST,MERLIN PARK 3 - PLAYGROUND 35 LAWSON ST,MERLIN PARK 3,PLAYGROUND,-104.62483085800,50.48428740470
439,2 ACADEMY PARK ROAD,ACADEMY PARK - ATHLETIC FIELD SOCCER ATHLETIC FIELD,ACADEMY PARK,ATHLETIC FIELD,-104.60579291200,50.40955322890
440,134 ARGYLE STREET,O'NEILL HIGH SCHOOL - BALL DIAMOND BS #252,O'NEILL HIGH SCHOOL,BALL DIAMOND,-104.63414486900,50.47692134860
441,134 ARGYLE STREET,O'NEILL MULTI - ATHLETIC FIELD MULTI-USE ATHLETIC FIELD,O'NEILL MULTI,ATHLETIC FIELD,-104.63486584300,50.47751248610
442,134 ARGYLE STREET,ARCHBISHOP O_NEILL COLLEGIATE -  Removed,ARCHBISHOP O_NEILL COLLEGIATE,,-104.63445327300,50.47819347280
443,134 Argyle St.,Archbishop M.C. O'Neill High School - Separate High School,Archbishop M.C. O'Neill High School - Separate High School,Separate High School,-104.63408037000,50.47747339130
444,5637 7th Ave.,Walker - Public Elementary School,Walker - Public Elementary School,Public Elementary School,-104.66238416700,50.45806521180
445,1101 WALKER STREET,ROSEMONT PARK - SPRAYPAD 1101 WALKER ST  @ 6TH AVE,ROSEMONT PARK,SPRAYPAD,-104.66217102000,50.46013146520
446,1101 WALKER ST,ROSEMONT PARK - OUTDOOR RINK SHELTER,ROSEMONT PARK,OUTDOOR RINK SHELTER,-104.66186272400,50.46096631080
447,1101 WALKER STREET,ROSEMONT PARK - BALL DIAMOND BS #156,ROSEMONT PARK,BALL DIAMOND,-104.66162186500,50.46091805420
448,1101 WALKER STREET,ROSEMONT PARK - BASKETBALL,ROSEMONT PARK,BASKETBALL,-104.66229198500,50.46006793450
449,1101 WALKER STREET,ROSEMONT PARK  - PLAYGROUND 1101 WALKER STREET,ROSEMONT PARK,PLAYGROUND,-104.66139011100,50.46031343040
450,2311 12th AVE,CENTRAL LIBRARY,CENTRAL LIBRARY,Library,-104.61441598700,50.44846357100
451,6823 GILLMORE DR,ST. ANGELA MERICI SCHOOL - PLAYGROUND 6823 GILLMORE DR,ST. ANGELA MERICI SCHOOL,PLAYGROUND,-104.67820964000,50.50153268800
452,6823 Gillmore Dr.,St. Angela Merici - Separate Elementary School,St. Angela Merici - Separate Elementary School,Separate Elementary School,-104.67888920900,50.50149799230
453,3301 GARNET STREET,ST. PIUS SCHOOL - BALL DIAMOND BS #41,ST. PIUS SCHOOL,BALL DIAMOND,-104.62485990100,50.42771368320
454,3301 GARNET STREET,ST. PIUS SCHOOL - BASKETBALL,ST. PIUS SCHOOL,BASKETBALL,-104.62570991400,50.42690569380
455,3301 GARNET ST,ST. PIUS SCHOOL - PLAYGROUND 3301 GARNET ST,ST. PIUS SCHOOL,PLAYGROUND,-104.62539916300,50.42650731220
456,3301 Garnet St.,St. Pius X - Separate Elementary School,St. Pius X - Separate Elementary School,Separate Elementary School,-104.62543216200,50.42695216650
457,3110 PASQUA STREET,COLUMBUS PARK SSE - BALL DIAMOND BS #58,COLUMBUS PARK SSE,BALL DIAMOND,-104.64126545200,50.43042190640
458,3110 PASQUA STREET,COLUMBUS PARK SE - BALL DIAMOND BS #55,COLUMBUS PARK SE,BALL DIAMOND,-104.64144616200,50.43107870390
459,2211 COLLEGE AVE.,WASCANA - OUTDOOR POOL,WASCANA,OUTDOOR POOL,-104.61311417200,50.43853065890
460,2355 COLLEGE AVENUE,WASCANA SWIMMING POOL,Wascana Centre,Wascana Centre,-104.61310486700,50.43851265040
461,4550 8TH AVENUE,BENSON PARK - BALL DIAMOND BS #179,BENSON PARK,BALL DIAMOND,-104.64570065800,50.45773523110
462,4550 8TH AVE,BENSON PARK - PLAYGROUND 4550 8TH AVE,BENSON PARK,PLAYGROUND,-104.64645454100,50.45703811970
463,140 N MCINTOSH STREET,ST. MARY SCHOOL - BASKETBALL,ST. MARY SCHOOL,BASKETBALL,-104.65406831100,50.47815577380
464,140 N MCINTOSH STREET,ST. MARY SCHOOL N - BALL DIAMOND,ST. MARY SCHOOL N,BALL DIAMOND,-104.65526460300,50.47870655370
465,140 N MCINTOSH ST,ST. MARY SCHOOL - PLAYGROUND 140 N MCINTOSH ST,ST. MARY SCHOOL,PLAYGROUND,-104.65348319400,50.47804543700
466,140 N MCINTOSH STREET,ST. MARY SCHOOL S - BALL DIAMOND,ST. MARY SCHOOL S,BALL DIAMOND,-104.65523365600,50.47767186780
467,140 N MCINTOSH STREET,ST. MARY SCHOOL - ATHLETIC FIELD SOCCER ATHLETIC FIELD,ST. MARY SCHOOL,ATHLETIC FIELD,-104.65474089200,50.47838565670
468,140 N. McIntosh St.,St. Mary - Separate Elementary School,St. Mary - Separate Elementary School,Separate Elementary School,-104.65414291900,50.47815819880
469,1956 BRODER ST,GREENBURG PARK - PLAYGROUND 1956 BRODER ST,GREENBURG PARK,PLAYGROUND,-104.59116548000,50.44779977900
470,901 GARNET STREET,GRASSICK PLAYGROUND - OUTDOOR RINK BOARDED,GRASSICK PLAYGROUND,OUTDOOR RINK BOARDED,-104.62645547800,50.46405313790
471,901 GARNET ST,GRASSICK PLAYGROUND - PLAYGROUND 901 GARNET ST,GRASSICK PLAYGROUND,PLAYGROUND,-104.62584618300,50.46423176780
472,901 GARNET ST,GRASSICK PLAYGROUND - OUTDOOR RINK SHELTER,GRASSICK PLAYGROUND,OUTDOOR RINK SHELTER,-104.62605605200,50.46436279560
473,901 GARNET STREET,GRASSICK PLAYGROUND - OUTDOOR RINK UNBOARDED,GRASSICK PLAYGROUND,OUTDOOR RINK UNBOARDED,-104.62602824300,50.46408386680
474,901 GARNET STREET,GRASSICK PLAYGROUND - BALL DIAMOND BS #154,GRASSICK PLAYGROUND,BALL DIAMOND,-104.62648522200,50.46318935180
475,8045 KESTRAL DRIVE,WESTHILL/JOANNE GOULET - OUTDOOR RINK UNBOARDED,WESTHILL/JOANNE GOULET,OUTDOOR RINK UNBOARDED,-104.69673910300,50.47814665660
476,8045 KESTRAL DRIVE,WESTHILL/JOANNE GOULET - OUTDOOR RINK BOARDED,WESTHILL/JOANNE GOULET,OUTDOOR RINK BOARDED,-104.69676511900,50.47788083480
477,8045 KESTRAL DR,WESTHILL/JOANNE GOULET GOLF COURSE - OUTDOOR RINK SHELTER,WESTHILL/JOANNE GOULET GOLF COURSE,OUTDOOR RINK SHELTER,-104.69690507800,50.47816635290
478,255 N GARNET STREET,SHEPPARD PARK - ATHLETIC FIELD SOCCER ATHLETIC FIELD,SHEPPARD PARK,ATHLETIC FIELD,-104.62592272900,50.48010082440
479,255 N GARNET STREET,SHEPPARD PARK/GLADYS MCDONALD - BALL DIAMOND BS #251,SHEPPARD PARK/GLADYS MCDONALD,BALL DIAMOND,-104.62633277300,50.47995551600
480,3820 VICTORIA AVENUE,LESLIE PARK - OUTDOOR RINK UNBOARDED,LESLIE PARK,OUTDOOR RINK UNBOARDED,-104.63438624600,50.44752865340
481,3820 VICTORIA AVENUE,"LESLIE LAWNBOWLING PARK GREEN ""D"" (EAST END) - ATHLETIC FIELD MULTI-USE ATHLETIC FIELD","LESLIE LAWNBOWLING PARK GREEN ""D"" (EAST END)",ATHLETIC FIELD,-104.63566554800,50.44756094610
482,3820 VICTORIA AVENUE,"LESLIE LAWNBOWLING PARK GREEN ""C"" (EAST CENTER) - ATHLETIC FIELD MULTI-USE ATHLETIC FIELD","LESLIE LAWNBOWLING PARK GREEN ""C"" (EAST CENTER)",ATHLETIC FIELD,-104.63622306600,50.44756904880
483,3820 VICTORIA AVENUE,"LESLIE LAWNBOWLING PARK GREEN ""A"" (WEST END) - ATHLETIC FIELD MULTI-USE ATHLETIC FIELD","LESLIE LAWNBOWLING PARK GREEN ""A"" (WEST END)",ATHLETIC FIELD,-104.63772660200,50.44756102390
484,4040 VICTORIA AVE,LESLIE PARK - OUTDOOR RINK SHELTER,LESLIE PARK,OUTDOOR RINK SHELTER,-104.63425158200,50.44759481950
485,3820 VICTORIA AVE,LESLIE PARK - PLAYGROUND 3820 VICTORIA AVE,LESLIE PARK,PLAYGROUND,-104.63512698600,50.44743441620
486,3820 VICTORIA AVENUE,"LESLIE LAWNBOWLING PARK GREEN ""B"" (WEST CENTER) - ATHLETIC FIELD MULTI-USE ATHLETIC FIELD","LESLIE LAWNBOWLING PARK GREEN ""B"" (WEST CENTER)",ATHLETIC FIELD,-104.63715907800,50.44755925590
487,3820 VICTORIA AVENUE,LESLIE PARK - BASKETBALL,LESLIE PARK,BASKETBALL,-104.63480846000,50.44743880250
488,3820 VICTORIA AVENUE,LESLIE PARK - OUTDOOR RINK BOARDED,LESLIE PARK,OUTDOOR RINK BOARDED,-104.63471004400,50.44784146220
489,3210 E PARKLAND DRIVE,PARKLAND PARK - BASKETBALL,PARKLAND PARK,BASKETBALL,-104.53909295500,50.43924163170
490,3210 E PARKLAND DR,PARKLAND PARK - PLAYGROUND 3210 E PARKLAND DR,PARKLAND PARK,PLAYGROUND,-104.53801721500,50.43942940450
491,131 MASSEY ROAD,MASSEY SCHOOL - BALL DIAMOND BS #20,MASSEY SCHOOL,BALL DIAMOND,-104.60573430500,50.41124065560
492,131 MASSEY ROAD,MASSEY SCHOOL - BASKETBALL,MASSEY SCHOOL,BASKETBALL,-104.60774883800,50.41125799470
493,131 MASSEY ROAD,MASSEY SCHOOL - PLAYGROUND 131 MASSEY ROAD,MASSEY SCHOOL,PLAYGROUND,-104.60789171300,50.41090513580
494,131 Massey Rd.,Massey - Public Elementary School,Massey - Public Elementary School,Public Elementary School,-104.60751012600,50.41110188680
495,2735 LACON ST,DOMINION PARK - PLAYGROUND 2735 LACON ST,DOMINION PARK,PLAYGROUND,-104.56826438700,50.43555038050
496,5757 Rochdale Blvd.,Michael A. Riffel High School - Separate High School,Michael A. Riffel High School - Separate High School,Separate High School,-104.66256393600,50.49490990130
497,120 WEEKES CRESCENT,WEEKES PARK - ATHLETIC FIELD SOCCER ATHLETIC FIELD,WEEKES PARK,ATHLETIC FIELD,-104.60762086400,50.49572827550
498,2015 9TH AVE N,NORTH EAST PARK NEE - BALL DIAMOND,NORTH EAST PARK NEE,BALL DIAMOND,-104.60808530500,50.48317140410
499,444 N. BROAD ST.,JACK W. STAPLES - ARENA,JACK W. STAPLES,ARENA,-104.60729254000,50.48275583340
500,2015 9TH AVE N,NORTH EAST PARK SE - BALL DIAMOND BS #278 (AKA=REGINA MINOR GIRLS BALL),NORTH EAST PARK SE,BALL DIAMOND,-104.60812589700,50.48290025850
501,10 DEMPSEY AVE,ST. JOAN OF ARC SCHOOL - PLAYGROUND 10 DEMPSEY AVE,ST. JOAN OF ARC SCHOOL,PLAYGROUND,-104.66960269500,50.47670161020
502,10 DEMPSEY AVE,ST. JOAN OF ARC SCHOOL - BASKETBALL,ST. JOAN OF ARC SCHOOL,BASKETBALL,-104.66858099100,50.47649311800
503,10 Dempsey Ave.,St. Joan of Arc - Separate Elementary School,St. Joan of Arc - Separate Elementary School,Separate Elementary School,-104.66882335000,50.47649258860
504,1010 MCNIVEN AVENUE,MCNIVEN PARK - ATHLETIC FIELD SOCCER ATHLETIC FIELD,MCNIVEN PARK,ATHLETIC FIELD,-104.59573402100,50.41848514140
505,4101 DEWDNEY AVE.,PASQUA HOSPITAL,PASQUA HOSPITAL,Hospital,-104.63863233300,50.45419848890
506,4310 MONTAGUE STREET,REALTORS EAST SOCCER - ATHLETIC FIELD SOCCER ATHLETIC FIELD,REALTORS EAST SOCCER,ATHLETIC FIELD,-104.63089080300,50.41007816730
507,4310 MONTAGUE STREET,REALTORS PARK - BASKETBALL,REALTORS PARK,BASKETBALL,-104.63171540100,50.40958227190
508,170 SUNSET DR.,SOUTH LEISURE CENTRE - REC_NBHD FACILITY,SOUTH LEISURE CENTRE,REC_NBHD FACILITY,-104.63156015400,50.40936572350
509,4310 MONTAGUE STREET,REALTORS PARK - SPRAYPAD 170 SUNSET DR,REALTORS PARK,SPRAYPAD,-104.63092313400,50.40916893670
510,4310 MONTAGUE ST,REALTORS PARK - PLAYGROUND 4310 MONTAGUE ST,REALTORS PARK,PLAYGROUND,-104.63196088600,50.40957043240
511,6102 BRUNSKILL PL,A.E. WILSON PARK (EAST) - WALKER SCHOOL - PLAYGROUND 6102 BRUNSKILL PL,A.E. WILSON PARK (EAST) - WALKER SCHOOL,PLAYGROUND,-104.66342255600,50.45797469530
512,1315 CAMPBELL STREET,WALKER SCHOOL - ATHLETIC FIELD SOCCER ATHLETIC FIELD,WALKER SCHOOL,ATHLETIC FIELD,-104.66257650600,50.45733581900
513,1315 CAMPBELL STREET,WALKER SCHOOL - BALL DIAMOND BS #150,WALKER SCHOOL,BALL DIAMOND,-104.66222562800,50.45701695540
514,750 PASQUA ST,KINSMEN PARK NORTH - PLAYGROUND 750 PASQUA ST,KINSMEN PARK NORTH,PLAYGROUND,-104.64134790000,50.46654407570
515,750 PASQUA STREET,KINSMEN PARK NORTH - SPRAYPAD 750 PASQUA ST @ 2ND AVE,KINSMEN PARK NORTH,SPRAYPAD,-104.64160557100,50.46679364370
516,2700E Arens Rd,Fire Hall No. 5,HAROLD T. BUTTON Fire Hall,Fire,-104.54483050800,50.44071953980
517,343 N PICKARD STREET,AL PICKARD PARK - OUTDOOR RINK UNBOARDED,AL PICKARD PARK,OUTDOOR RINK UNBOARDED,-104.65716306900,50.48267017830
518,343 N PICKARD ST,AL PICKARD PARK - PLAYGROUND 343 N PICKARD ST,AL PICKARD PARK,PLAYGROUND,-104.65700954200,50.48224829470
519,263 LEWVAN DR,PASQUA NEIGHBOURHOOD RECREATION CENTRE - BASKETBALL,PASQUA NEIGHBOURHOOD RECREATION CENTRE,BASKETBALL,-104.64032620500,50.47432423470
520,263 LEWVAN DR,PASQUA NEIGHBOURHOOD RECREATION CENTRE - PLAYGROUND 263 LEWVAN DR,PASQUA NEIGHBOURHOOD RECREATION CENTRE,PLAYGROUND,-104.64030286900,50.47415231910
521,263 PASQUA ST.,PASQUA NEIGHBOURHOOD RECREATION CENTRE - REC_NBHD FACILITY,PASQUA NEIGHBOURHOOD RECREATION CENTRE,REC_NBHD FACILITY,-104.64060071400,50.47431159980
522,2015 9TH AVE N,NORTH EAST PARK SW - BALL DIAMOND,NORTH EAST PARK SW,BALL DIAMOND,-104.60929973700,50.48339633230
523,3105 4TH AVE N,CORONATION PARK SCHOOL - BASKETBALL,CORONATION PARK SCHOOL,BASKETBALL,-104.62531428300,50.47476925550
524,3105 4TH AVENUE N,CORONATION PARK SCHOOL - ATHLETIC FIELD SOCCER ATHLETIC FIELD,CORONATION PARK SCHOOL,ATHLETIC FIELD,-104.62423833900,50.47512689330
525,3105 4TH AVENUE N,CORONATION PARK SCHOOL - OUTDOOR RINK UNBOARDED,CORONATION PARK SCHOOL,OUTDOOR RINK UNBOARDED,-104.62412817500,50.47532351360
526,3105 4TH AVE N,CORONATION PARK SCHOOL - PLAYGROUND 3105 4TH AVE N,CORONATION PARK SCHOOL,PLAYGROUND,-104.62514936200,50.47514439500
527,3105 4TH AVE N,CORONATION PARK SCHOOL - OUTDOOR RINK SHELTER,CORONATION PARK SCHOOL,OUTDOOR RINK SHELTER,-104.62397762600,50.47550001480
528,3105 4th Ave. N.,Coronation Park - Public Elementary School,Coronation Park - Public Elementary School,Public Elementary School,-104.62462467300,50.47501925740
529,2033 TORONTO STREET,THOMSON SCHOOL - BASKETBALL,THOMSON SCHOOL,BASKETBALL,-104.59877374200,50.44671386740
530,2033 TORONTO STREET,THOMSON SCHOOL - BALL DIAMOND BS #88,THOMSON SCHOOL,BALL DIAMOND,-104.59797808200,50.44570548970
531,2033 TORONTO STREET,THOMSON SCHOOL - ATHLETIC FIELD SOCCER ATHLETIC FIELD,THOMSON SCHOOL,ATHLETIC FIELD,-104.59839733100,50.44587810890
532,2033 TORONTO ST,THOMSON SCHOOL - PLAYGROUND 2033 TORONTO ST,THOMSON SCHOOL,PLAYGROUND,-104.59823903000,50.44676804250
533,2033 TORONTO STREET,THOMSON SCHOOL - BASKETBALL,THOMSON SCHOOL,BASKETBALL,-104.59875073700,50.44670670980
534,2033 Toronto St.,Thomson - Public Elementary School,Thomson - Public Elementary School,Public Elementary School,-104.59836864600,50.44626492430
535,130 BENTLEY DRIVE,TURNER PARK - ATHLETIC FIELD SOCCER ATHLETIC FIELD,TURNER PARK,ATHLETIC FIELD,-104.54590218400,50.45387304800
536,130 BENTLEY DR,TURNER PARK - PLAYGROUND 130 BENTLEY DR,TURNER PARK,PLAYGROUND,-104.54667698600,50.45390753510
537,165 PETERSMEYER ST,ENGLEWOOD PARK - PLAYGROUND 165 PETERSMEYER ST,ENGLEWOOD PARK,PLAYGROUND,-104.62172706400,50.49259480910
538,2810 BROAD STREET,QUEEN BUILDING,Wascana Centre,Wascana Centre,-104.60604225900,50.43434963310
539,225 MIKKELSON DR,MABLE BROWN PARK - OUTDOOR RINK SHELTER,MABLE BROWN PARK,OUTDOOR RINK SHELTER,-104.68193418300,50.46657925140
540,225 MIKKELSON DR,MABLE BROWN PARK - PLAYGROUND 225 MIKKELSON DR,MABLE BROWN PARK,PLAYGROUND,-104.68169268700,50.46689104380
541,255 MIKKELSON DRIVE,MABLE BROWN PARK - OUTDOOR RINK UNBOARDED,MABLE BROWN PARK,OUTDOOR RINK UNBOARDED,-104.68208699700,50.46663648170
542,5440 2ND AVENUE N,KEN JENKINS PARK - BALL DIAMOND BS #198,KEN JENKINS PARK,BALL DIAMOND,-104.65917059200,50.47304840610
543,101 MAYFIELD RD,WILFRED HUNT SCHOOL - PLAYGROUND 101 MAYFIELD RD,WILFRED HUNT SCHOOL,PLAYGROUND,-104.56285228300,50.42994910480
544,101 MAYFIELD ROAD,WILFRED HUNT SCHOOL - BASKETBALL,WILFRED HUNT SCHOOL,BASKETBALL,-104.56275034000,50.42974484800
545,101 Mayfield Rd.,Wilfred Hunt - Public Elementary School,Wilfred Hunt - Public Elementary School,Public Elementary School,-104.56270653400,50.42969310230
546,25 MICHENER DRIVE,UNIVERSITY PARK/WILFRED HUNT MULTI - ATHLETIC FIELD MULTI-USE ATHLETIC FIELD,UNIVERSITY PARK/WILFRED HUNT MULTI,ATHLETIC FIELD,-104.56105621700,50.43068723350
547,2150 ALEXANDRA ST,BRINKWORTH PARK - PLAYGROUND 2150 ALEXANDRA ST,BRINKWORTH PARK,PLAYGROUND,-104.64480405200,50.44532659510
548,2626 E DEWDNEY AVE,GLENCAIRN RECREATION CENTRE - PLAYGROUND 2626 E DEWDNEY AVE,GLENCAIRN RECREATION CENTRE,PLAYGROUND,-104.54346716200,50.45571700540
549,2626 E DEWDNEY AVENUE,GLENCAIRN MULTI - ATHLETIC FIELD MULTI-USE ATHLETIC FIELD,GLENCAIRN MULTI,ATHLETIC FIELD,-104.54351115500,50.45680555190
550,2626 E DEWDNEY AVENUE,GLENCAIRN PARK - OUTDOOR RINK BOARDED,GLENCAIRN PARK,OUTDOOR RINK BOARDED,-104.54138245500,50.45687643070
551,2626 E. DEWDNEY AVE.,GLENCAIRN NEIBOURHOOD RECREATION CENTRE - REC_NBHD FACILITY,GLENCAIRN NEIBOURHOOD RECREATION CENTRE,REC_NBHD FACILITY,-104.54337621200,50.45545200700
552,2828 E DEWDNEY AVE,JUDGE BRYANT SCHOOL - OUTDOOR RINK SHELTER,JUDGE BRYANT SCHOOL,OUTDOOR RINK SHELTER,-104.54117748900,50.45667912610
553,2626 E DEWDNEY AVENUE,GLENCAIRN PARK/JUDGE BRYANT - BALL DIAMOND,GLENCAIRN PARK/JUDGE BRYANT,BALL DIAMOND,-104.54211546600,50.45644485690
554,2626 E DEWDNEY AVENUE,GLENCAIRN PARK - OUTDOOR RINK UNBOARDED,GLENCAIRN PARK,OUTDOOR RINK UNBOARDED,-104.54222937600,50.45682235470
555,2940 PASQUA STREET,COLUMBUS PARK SW - BALL DIAMOND BS #53,COLUMBUS PARK SW,BALL DIAMOND,-104.64254207500,50.43184109980
556,2940 PASQUA STREET,COLUMBUS PARK NNE - BALL DIAMOND BS #51,COLUMBUS PARK NNE,BALL DIAMOND,-104.64166552500,50.43317460420
557,2940 PASQUA STREET,COLUMBUS PARK NE - BALL DIAMOND BS #52,COLUMBUS PARK NE,BALL DIAMOND,-104.64179241000,50.43276385520
558,305 ROSE STREET,IMPERIAL PARK - OUTDOOR RINK SHELTER,IMPERIAL PARK,OUTDOOR RINK SHELTER,-104.60731824800,50.47380414920
559,305 ROSE STREET,IMPERIAL PARK - SPRAYPAD 305 ROSE ST,IMPERIAL PARK,SPRAYPAD,-104.60762424500,50.47372758980
560,305 ROSE STREET,IMPERIAL PARK - OUTDOOR RINK BOARDED,IMPERIAL PARK,OUTDOOR RINK BOARDED,-104.60696099300,50.47361879690
561,305 ROSE ST,IMPERIAL PARK - PLAYGROUND 305 ROSE ST,IMPERIAL PARK,PLAYGROUND,-104.60754490400,50.47349960000
562,305 ROSE STREET,IMPERIAL PARK - BALL DIAMOND BS #267,IMPERIAL PARK,BALL DIAMOND,-104.60884142200,50.47421578100
563,1000 STOCKTON ST,JUNIPER PARK - ATHLETIC FIELD,JUNIPER PARK,ATHLETIC FIELD,-104.64621150800,50.49437573260
564,1000 STOCKTON ST,JUNIPER PARK - PLAYGROUND 1000 STOCKTON ST,JUNIPER PARK,PLAYGROUND,-104.64718518200,50.49445990630
565,6330 7TH AVENUE N,RUTH M. BUCK SCHOOL - BASKETBALL,RUTH M. BUCK SCHOOL,BASKETBALL,-104.67104798000,50.47656585180
566,6330 7TH AVENUE N,RUTH M. BUCK SCHOOL - PLAYGROUND,RUTH M. BUCK SCHOOL,PLAYGROUND,-104.67047877200,50.47606967280
567,6330 7TH AVENUE N,RUTH M. BUCK SCHOOL - PLAYGROUND,RUTH M. BUCK SCHOOL,PLAYGROUND,-104.67183784800,50.47608425790
568,6330 7th Ave. N.,Ruth M. Buck - Public Elementary School,Ruth M. Buck - Public Elementary School,Public Elementary School,-104.67075513600,50.47651552810
569,525 SHANNON RD,SHANNON PARK - PLAYGROUND 525 SHANNON RD,SHANNON PARK,PLAYGROUND,-104.60754307000,50.39804527560
570,3706 E JENKINS DR,JENKINS DR. PARK - PLAYGROUND 3706 E JENKINS DR,JENKINS DR. PARK,PLAYGROUND,-104.53079229600,50.46518111650
571,40 COWIE RD,DR. A.E. PERRY PARK - OUTDOOR RINK SHELTER,DR. A.E. PERRY PARK,OUTDOOR RINK SHELTER,-104.63310838500,50.40213193930
572,40 COWIE ROAD,DR. A.E. PERRY PARK - BALL DIAMOND BS #32,DR. A.E. PERRY PARK,BALL DIAMOND,-104.63237819000,50.40126779050
573,40 COWIE RD,DR. A.E. PERRY PARK - PLAYGROUND 40 COWIE RD,DR. A.E. PERRY PARK,PLAYGROUND,-104.63099194500,50.40238439770
574,40 COWIE ROAD,DR. A.E. PERRY PARK - ATHLETIC FIELD SOCCER ATHLETIC FIELD,DR. A.E. PERRY PARK,ATHLETIC FIELD,-104.63194439800,50.40143117210
575,2910 ATHOL STREET,LAKEVIEW PARK - OUTDOOR RINK UNBOARDED,LAKEVIEW PARK,OUTDOOR RINK UNBOARDED,-104.62913914200,50.43218720480
576,2910 ATHOL ST,LAKEVIEW PARK - OUTDOOR RINK SHELTER,LAKEVIEW PARK,OUTDOOR RINK SHELTER,-104.62850130700,50.43187533980
577,2910 ATHOL STREET,LAKEVIEW PARK - BALL DIAMOND BS #44,LAKEVIEW PARK,BALL DIAMOND,-104.62858367500,50.43307607280
578,2910 ATHOL STREET,LAKEVIEW PARK - OUTDOOR RINK BOARDED,LAKEVIEW PARK,OUTDOOR RINK BOARDED,-104.62871290600,50.43220784390
579,2910 ATHOL ST,LAKEVIEW PARK - PLAYGROUND 2910 ATHOL ST,LAKEVIEW PARK,PLAYGROUND,-104.62841138500,50.43218174280
580,37 CAMERON CRES,DESHAYE SCHOOL W - PLAYGROUND 37 CAMERON CRES,DESHAYE SCHOOL W,PLAYGROUND,-104.62503056800,50.41215430290
581,37 CAMERON CRESCENT,DESHAYE SCHOOL - ATHLETIC FIELD SOCCER ATHLETIC FIELD,DESHAYE SCHOOL,ATHLETIC FIELD,-104.62361846400,50.41200388200
582,37 CAMERON CRES,DESHAYE SCHOOL E - PLAYGROUND 37 CAMERON CRES,DESHAYE SCHOOL E,PLAYGROUND,-104.62448809200,50.41210150300
583,37 CAMERON CRESCENT,DESHAYE SCHOOL - BASKETBALL,DESHAYE SCHOOL,BASKETBALL,-104.62415128100,50.41240995000
584,37 CAMERON CRESCENT,DESHAYE SCHOOL - BASKETBALL,DESHAYE SCHOOL,BASKETBALL,-104.62414708300,50.41239376590
585,37 CAMERON CRES,DESHAYE SCHOOL - BALL DIAMOND BS #9,DESHAYE SCHOOL,BALL DIAMOND,-104.62280224100,50.41213808680
586,37 Cameron Cr.,DeShaye - Separate Elementary School,DeShaye - Separate Elementary School,Separate Elementary School,-104.62407331000,50.41197487230
587,38 TURGEON CRES,MARION MCVEETY SCHOOL - BASKETBALL,MARION MCVEETY SCHOOL,BASKETBALL,-104.60592102100,50.42032180020
588,38 TURGEON CRES,MARION MCVEETY SCHOOL N - PLAYGROUND 38 TURGEON CRES,MARION MCVEETY SCHOOL N,PLAYGROUND,-104.60601193600,50.42076230790
589,38 TURGEON CRES,MARION MCVEETY SCHOOL S - PLAYGROUND 38 TURGEON CRES,MARION MCVEETY SCHOOL S,PLAYGROUND,-104.60551591900,50.41998972260
590,38 Turgeon Cr.,Marion McVeety - Public Elementary School,Marion McVeety - Public Elementary School,Public Elementary School,-104.60553729300,50.42022152700
591,2010 8TH AVENUE N,NORTHEAST PARK - OUTDOOR TENNIS,NORTHEAST PARK,OUTDOOR TENNIS,-104.61129142300,50.48230474990
592,2015 9TH AVE N,NORTH EAST PARK SSW - BALL DIAMOND BS #283 (AKA=REGINA MINOR GIRLS BALL),NORTH EAST PARK SSW,BALL DIAMOND,-104.60984480100,50.48224326420
593,1925 9TH AVENUE N,NORTH EAST PARK N - BALL DIAMOND BS #280 (AKA=REGINA MINOR GIRLS BALL),NORTH EAST PARK N,BALL DIAMOND,-104.60832946300,50.48405087710
594,2015 9TH AVE N,NORTH EAST PARK NW - BALL DIAMOND BS #279 (AKA=REGINA MINOR GIRLS BALL),NORTH EAST PARK NW,BALL DIAMOND,-104.60943035600,50.48405457610
595,28 ALPORT CRESCENT,ALPORT PARK - BALL DIAMOND BS #265,ALPORT PARK,BALL DIAMOND,-104.60085397400,50.49591155060
596,841 HORACE STREET,ROSEMONT SCHOOL - ATHLETIC FIELD SOCCER ATHLETIC FIELD,ROSEMONT SCHOOL,ATHLETIC FIELD,-104.65763368700,50.46368852400
597,841 HORACE ST,ROSEMONT SCHOOL - PLAYGROUND 841 HORACE ST,ROSEMONT SCHOOL,PLAYGROUND,-104.65872686800,50.46403005380
598,841 HORACE STREET,ROSEMONT SCHOOL - BASKETBALL,ROSEMONT SCHOOL,BASKETBALL,-104.65887637700,50.46336859130
599,841 Horace St.,Rosemont - Public Elementary School,Rosemont - Public Elementary School,Public Elementary School,-104.65826961700,50.46357388920
600,201 FULTON DRIVE,MCLURG SCHOOL PARK - ATHLETIC FIELD SOCCER ATHLETIC FIELD,MCLURG SCHOOL PARK,ATHLETIC FIELD,-104.67821829900,50.47253705100
601,201 FULTON DR,MCLURG SCHOOL PARK - OUTDOOR RINK SHELTER,MCLURG SCHOOL PARK,OUTDOOR RINK SHELTER,-104.67738169500,50.47262609530
602,201 FULTON DRIVE,MCLURG SCHOOL PARK - OUTDOOR RINK UNBOARDED,MCLURG SCHOOL PARK,OUTDOOR RINK UNBOARDED,-104.67751633100,50.47278513580
603,201 FULTON DRIVE,MCLURG SCHOOL PARK - OUTDOOR TENNIS,MCLURG SCHOOL PARK,OUTDOOR TENNIS,-104.67752835700,50.47233979930
604,2401 RETALLACK STREET,DAVIN SCHOOL - BALL DIAMOND BS #127,DAVIN SCHOOL,BALL DIAMOND,-104.62173947400,50.44008726890
605,2401 RETALLACK STREET,DAVIN SCHOOL - BASKETBALL,DAVIN SCHOOL,BASKETBALL,-104.62137998800,50.44067869130
606,2401 RETALLACK ST,DAVIN SCHOOL - PLAYGROUND 2401 RETALLACK ST,DAVIN SCHOOL,PLAYGROUND,-104.62225964700,50.43993559750
607,2401 RETALLACK ST,DAVIN SCHOOL - OUTDOOR RINK SHELTER,DAVIN SCHOOL,OUTDOOR RINK SHELTER,-104.62150292700,50.43968597480
608,2401 RETALLACK STREET,DAVIN SCHOOL - ATHLETIC FIELD SOCCER ATHLETIC FIELD,DAVIN SCHOOL,ATHLETIC FIELD,-104.62092726100,50.44043746940
609,2401 RETALLACK STREET,DAVIN SCHOOL - BASKETBALL,DAVIN SCHOOL,BASKETBALL,-104.62191502800,50.44009333790
610,2401 Retallack St.,Davin - Public Elementary School,Davin - Public Elementary School,Public Elementary School,-104.62155010100,50.44024203750
611,1512 E 8TH AVE,OXFORD PARK - PLAYGROUND 1512 E 8TH AVE,OXFORD PARK,PLAYGROUND,-104.56060567500,50.45705449560
612,3855 Dewdney Ave,Fire Hall No. 4,Fire Hall,Fire,-104.63617403700,50.45499945180
613,2941 LAKEVIEW AVE,ARGYLE SCHOOL - BASKETBALL,ARGYLE SCHOOL,BASKETBALL,-104.62652522700,50.42104494670
614,2941 LAKEVIEW AVENUE,ARGYLE SCHOOL - ATHLETIC FIELD SOCCER ATHLETIC FIELD,ARGYLE SCHOOL,ATHLETIC FIELD,-104.62587767600,50.42057939660
615,2941 LAKEVIEW AVE,ARGYLE SCHOOL - PLAYGROUND 2941 LAKEVIEW AVE,ARGYLE SCHOOL,PLAYGROUND,-104.62542532200,50.42148668090
616,2941 Lakeview Ave.,Argyle - Public Elementary School,Argyle - Public Elementary School,Public Elementary School,-104.62592320200,50.42075907730
617,4410 QUEEN STREET,QUEEN ST. PARK - OUTDOOR RINK UNBOARDED,QUEEN ST. PARK,OUTDOOR RINK UNBOARDED,-104.63812596600,50.40938836500
618,4410 QUEEN STREET,QUEEN ST. PARK/ETHEL MILLIKEN - BALL DIAMOND BS #31 (AKA=ETHEL MILLIKEN SCHOOL),QUEEN ST. PARK/ETHEL MILLIKEN,BALL DIAMOND,-104.63877211300,50.40900811680
619,4410 QUEEN STREET,QUEEN ST. PARK/ETHEL MILLIKEN - BALL DIAMOND BS #30 (AKA=ETHEL MILLIKEN SCHOOL),QUEEN ST. PARK/ETHEL MILLIKEN,BALL DIAMOND,-104.63764936700,50.40957803200
620,4410 QUEEN STREET,QUEEN ST. PARK - BASKETBALL,QUEEN ST. PARK,BASKETBALL,-104.63780417900,50.40902763610
621,2102 11TH AVE,CORNWALL CENTRE,CORNWALL CENTRE,Mall,-104.61125556400,50.45108228260
622,4802 11TH AVE,MCNAB PARK - PLAYGROUND 4802 11TH AVE,MCNAB PARK,PLAYGROUND,-104.64754100400,50.44941370630
623,4802 11TH AVENUE,MCNAB PARK - OUTDOOR RINK UNBOARDED,MCNAB PARK,OUTDOOR RINK UNBOARDED,-104.64705808500,50.44947658850
624,4802 11TH AVENUE,MCNAB PARK - BALL DIAMOND BS #136,MCNAB PARK,BALL DIAMOND,-104.64694231700,50.45032772220
625,4802 11TH AVENUE,MCNAB PARK - ATHLETIC FIELD SOCCER ATHLETIC FIELD,MCNAB PARK,ATHLETIC FIELD,-104.64756110800,50.44990148380
626,4802 11TH AVE,MCNAB PARK - OUTDOOR RINK SHELTER,MCNAB PARK,OUTDOOR RINK SHELTER,-104.64701924700,50.44916630860
627,6010 4TH AVENUE,ST. FRANCIS PARK SW - BALL DIAMOND BS #159,ST. FRANCIS PARK SW,BALL DIAMOND,-104.66681016700,50.46352509900
628,3130 E. WOODHAMS DR.,SANDRA SCHMIRLER LEISURE CENTRE - REC_NBHD FACILITY,SANDRA SCHMIRLER LEISURE CENTRE,REC_NBHD FACILITY,-104.53547195100,50.42963154070
629,3130 E WOODHAMS DR,SANDRA SCHMIRLER LEISURE CENTRE - INDOOR POOL,SANDRA SCHMIRLER LEISURE CENTRE,INDOOR POOL,-104.53547282800,50.42966478060
630,3130 E WOODHAMS DR,SANDRA SCHMIRLER TOT LOT - PLAYGROUND 3130 E WOODHAMS DR,SANDRA SCHMIRLER TOT LOT,PLAYGROUND,-104.53604063200,50.42984748670
631,3130 E. WOODHAMS DR.,SUNRISE BRANCH LIBRARY,SUNRISE BRANCH LIBRARY,Library,-104.53601394300,50.42962792040
632,1831 COLLEGE AVENUE,SOUND STAGE,Wascana Centre,Wascana Centre,-104.60795013300,50.43988853670
633,20 COVENTRY ROAD,COVENTRY PARK - BALL DIAMOND BS #151,COVENTRY PARK,BALL DIAMOND,-104.64577417900,50.46090797410
634,20 COVENTRY RD,COVENTRY PARK - PLAYGROUND 20 COVENTRY RD,COVENTRY PARK,PLAYGROUND,-104.64852056000,50.46094543560
635,2851 OTTAWA ST,PEART PARK - PLAYGROUND 2851 OTTAWA ST,PEART PARK,PLAYGROUND,-104.60023490000,50.43496778620
636,1440 14TH AVE.,REGINA GENERAL HOSPITAL,REGINA GENERAL HOSPITAL,Hospital,-104.60130214800,50.44396366710
637,535 E DOUGLAS AVE,ST. ANDREW SCHOOL - PLAYGROUND 535 E DOUGLAS AVE,ST. ANDREW SCHOOL,PLAYGROUND,-104.57611752900,50.43244825270
638,535 E DOUGLAS AVENUE,ST. ANDREW SCHOOL E - BALL DIAMOND BS #78,ST. ANDREW SCHOOL E,BALL DIAMOND,-104.57630054500,50.43186435910
639,535 E DOUGLAS AVENUE,ST. ANDREW SCHOOL W - BALL DIAMOND BS #77,ST. ANDREW SCHOOL W,BALL DIAMOND,-104.57719620800,50.43196395100
640,535 E DOUGLAS AVE,ST. ANDREW SCHOOL - BASKETBALL,ST. ANDREW SCHOOL,BASKETBALL,-104.57692129100,50.43259074720
641,621 E. Douglas Ave.,St. Andrew - Separate Elementary School,St. Andrew - Separate Elementary School,Separate Elementary School,-104.57674348500,50.43226141730
642,2102 E WAGMAN DR,WILFRED WALKER SCHOOL - PLAYGROUND 2102 E WAGMAN DR,WILFRED WALKER SCHOOL,PLAYGROUND,-104.55254791300,50.43965190440
643,2102 E. Wagman Dr.,Wilfred Walker - Public Elementary School,Wilfred Walker - Public Elementary School,Public Elementary School,-104.55306830400,50.43992459340
644,1581 ROBINSON ST,PATTY CAKE PLAY PARK - PLAYGROUND 1581 ROBINSON ST,PATTY CAKE PLAY PARK,PLAYGROUND,-104.62365072300,50.45359618650
645,6310 7TH AVENUE N,RUTH BUCK PARK - BALL DIAMOND,RUTH BUCK PARK,BALL DIAMOND,-104.67065838300,50.47718499030
646,6310 7TH AVENUE N,RUTH BUCK PARK - OUTDOOR RINK BOARDED,RUTH BUCK PARK,OUTDOOR RINK BOARDED,-104.67246518800,50.47660282350
647,6310 7TH AVENUE N,RUTH BUCK PARK - OUTDOOR RINK UNBOARDED,RUTH BUCK PARK,OUTDOOR RINK UNBOARDED,-104.67245010500,50.47636746840
648,6310 7TH AVENUE N,RUTH BUCK PARK - BALL DIAMOND BS #193,RUTH BUCK PARK,BALL DIAMOND,-104.67243003600,50.47621657750
649,6208 SHERWOOD DR,RUTH BUCK PARK - OUTDOOR RINK SHELTER,RUTH BUCK PARK,OUTDOOR RINK SHELTER,-104.67285072900,50.47641495430
650,55 DAVIN CRESCENT,DR. HANNA SCHOOL - BASKETBALL,DR. HANNA SCHOOL,BASKETBALL,-104.63019837000,50.48910362880
651,55 DAVIN CRESCENT,DR. HANNA SCHOOL - BASKETBALL,DR. HANNA SCHOOL,BASKETBALL,-104.63012824000,50.48964954920
652,55 DAVIN CRES,DR. HANNA SCHOOL - PLAYGROUND 55 DAVIN CRES,DR. HANNA SCHOOL,PLAYGROUND,-104.62907797800,50.48939811200
653,35 DAVIN CR.,ARGYLE PARK COMMUNITY CENTRE - REC_NBHD FACILITY,ARGYLE PARK COMMUNITY CENTRE,REC_NBHD FACILITY,-104.63009606300,50.48937797460
654,55 Davin Cr.,Dr. L. M. Hanna - Public Elementary School,Dr. L. M. Hanna - Public Elementary School,Public Elementary School,-104.62998736000,50.48948373600
655,1654 11TH AVENUE,OLD #1 FIREHALL - PLAYGROUND 1654 11TH AVENUE,OLD #1 FIREHALL,PLAYGROUND,-104.60468680900,50.45067308470
656,4500 WASCANA PARKWAY,Saskatchewan Institute of Applied Arts Sciences and Technology (S.I.A.S.T.) - Wascana Parkway,Saskatchewan Institute of Applied Arts Sciences and Technology (S.I.A.S.T.) - Wascana Parkway,Other School,-104.58247986600,50.40675339280
657,4500 WASCANA PARKWAY,SIAST BUILDING,SIAST Campus,Siast Campus,-104.58180977000,50.40811474580
658,4500 WASCANA PARKWAY,SIAST HEATING PLANT,SIAST Campus,Siast Campus,-104.58056993400,50.40833712660
659,4500 WASCANA PARKWAY,SIAST PARKING STRUCTURE,SIAST Campus,Siast Campus,-104.58063955100,50.40756118960
660,3890 PARLIAMENT AVE,HUDSON PARK - PLAYGROUND 3890 PARLIAMENT AVE,HUDSON PARK,PLAYGROUND,-104.63308338600,50.41574587050
661,6903 DALGLIESH DRIVE,CENTENNIAL SCHOOL - BASKETBALL,CENTENNIAL SCHOOL,BASKETBALL,-104.68072588800,50.49124956150
662,6903 DALGLIESH DR,CENTENNIAL SCHOOL - PLAYGROUND 6903 DALGLIESH DR,CENTENNIAL SCHOOL,PLAYGROUND,-104.68083046100,50.49082348260
663,6903 Dalgliesh Dr.,Centennial - Public Elementary School,Centennial - Public Elementary School,Public Elementary School,-104.68037042200,50.49120843290
664,222 RINK AVE,HENRY JANZEN SCHOOL - PLAYGROUND 222 RINK AVE,HENRY JANZEN SCHOOL,PLAYGROUND,-104.65628909900,50.48799886600
665,222 Rink Ave.,Henry Janzen - Public Elementary School,Henry Janzen - Public Elementary School,Public Elementary School,-104.65701037800,50.48862263890
666,100 RINK AVENUE,LITZENBERGER - ATHLETIC FIELD SOCCER ATHLETIC FIELD,LITZENBERGER,ATHLETIC FIELD,-104.64965839500,50.48946965430
667,100 RINK AVENUE,LITZENBERGER PARK - OUTDOOR RINK BOARDED,LITZENBERGER PARK,OUTDOOR RINK BOARDED,-104.65014410800,50.48869292630
668,100 RINK AVE,LITZENBERGER PARK - PLAYGROUND 100 RINK AVE,LITZENBERGER PARK,PLAYGROUND,-104.64921154400,50.48885634700
669,100 RINK AVENUE,LITZENBERGER PARK - OUTDOOR RINK UNBOARDED,LITZENBERGER PARK,OUTDOOR RINK UNBOARDED,-104.64967834500,50.48874169420
670,100 RINK AVE,LITZENBERGER PARK - OUTDOOR RINK SHELTER,LITZENBERGER PARK,OUTDOOR RINK SHELTER,-104.64987353600,50.48849572960
671,2585 13th Ave,Fire Hall No. 1,WILLIAM WHITE Fire Hall,Fire,-104.61761911800,50.44529913680
672,2550 BROAD STREET,CNIB BUILDING,Wascana Centre,Wascana Centre,-104.60753609300,50.43826662560
673,3202 MCKINLEY AVENUE,PONY PARK E - BALL DIAMOND BS #292,PONY PARK E,BALL DIAMOND,-104.62708801500,50.46991507770
674,3202 MCKINLEY AVENUE,PONY PARK W - BALL DIAMOND BS #287,PONY PARK W,BALL DIAMOND,-104.62850928100,50.46995906950
675,3043 E ARENS ROAD,READY PARK - OUTDOOR RINK BOARDED,READY PARK,OUTDOOR RINK BOARDED,-104.54046889700,50.43640365260
676,3043 E ARENS ROAD,READY PARK - OUTDOOR RINK UNBOARDED,READY PARK,OUTDOOR RINK UNBOARDED,-104.54088621900,50.43670231850
677,3043 E ARENS ROAD,READY PARK/ST. MARGUERITE - BALL DIAMOND BS #70,READY PARK/ST. MARGUERITE,BALL DIAMOND,-104.54085812200,50.43700992130
678,2710 HELMSING ST,W.F. READY SCHOOL - OUTDOOR RINK SHELTER,W.F. READY SCHOOL,OUTDOOR RINK SHELTER,-104.54005469200,50.43663602870
679,3436 OLIVE GROVE,ARBOR GROVE PARK - PLAYGROUND 3436 OLIVE GROVE,ARBOR GROVE PARK,PLAYGROUND,-104.53330770500,50.42531117020
680,250 N GARNET STREET,MCMURCHY PARK - OUTDOOR RINK UNBOARDED,MCMURCHY PARK,OUTDOOR RINK UNBOARDED,-104.62821907100,50.48028410930
681,250 N GARNET ST,MCMURCHY PARK - OUTDOOR RINK SHELTER,MCMURCHY PARK,OUTDOOR RINK SHELTER,-104.62849450900,50.47982734650
682,250 N GARNET STREET,MCMURCHY PARK - OUTDOOR RINK BOARDED,MCMURCHY PARK,OUTDOOR RINK BOARDED,-104.62875800800,50.48027200510
683,250 N GARNET STREET,MCMURCHY PARK - ATHLETIC FIELD SOCCER ATHLETIC FIELD,MCMURCHY PARK,ATHLETIC FIELD,-104.62804545100,50.48080818150
684,250 N GARNET ST,MCMURCHY PARK - PLAYGROUND 250 N GARNET ST,MCMURCHY PARK,PLAYGROUND,-104.62771340800,50.47995031370
685,250 N GARNET STREET,MCMURCHY PARK - BALL DIAMOND BS #266,MCMURCHY PARK,BALL DIAMOND,-104.62755628600,50.48113283290
686,2940 10TH AVE,TAYLOR FIELD PRACTICE FIELD - ATHLETIC FIELD,TAYLOR FIELD PRACTICE FIELD,ATHLETIC FIELD,-104.62437826000,50.45241136680
687,2355 PARLIAMENT AVENUE,MASSEY WEST MULTI - ATHLETIC FIELD MULTI-USE ATHLETIC FIELD,MASSEY WEST MULTI,ATHLETIC FIELD,-104.61195662200,50.41422548690
688,2355 PARLIAMENT AVE,MASSEY PARK - PLAYGROUND 2355 PARLIAMENT AVE,MASSEY PARK,PLAYGROUND,-104.61100003800,50.41363154700
689,94 BOTHWELL CRES,BOTHWELL PARK - PLAYGROUND 94 BOTHWELL CRES,BOTHWELL PARK,PLAYGROUND,-104.59816687900,50.49264977630
690,54 MCNAUGHTON AVE,MCNAUGHTON PARK - PLAYGROUND 54 MCNAUGHTON AVE,MCNAUGHTON PARK,PLAYGROUND,-104.64790603600,50.48179464690
691,1109 E 14TH AVENUE,CRESCENT PARK - BALL DIAMOND BS #94,CRESCENT PARK,BALL DIAMOND,-104.56839298300,50.44165275940
692,1109 E 14TH AVE,CRESCENT PARK - OUTDOOR RINK SHELTER,CRESCENT PARK,OUTDOOR RINK SHELTER,-104.56732003300,50.44139145160
693,1109 E 14TH AVENUE,CRESCENT PARK - ATHLETIC FIELD SOCCER ATHLETIC FIELD,CRESCENT PARK,ATHLETIC FIELD,-104.56749558700,50.44210079990
694,1109 E 14TH AVE,CRESCENT PARK - PLAYGROUND 1109 E 14TH AVE,CRESCENT PARK,PLAYGROUND,-104.56667169700,50.44175537370
695,1109 E 14TH AVE,CRESCENT PARK - OUTDOOR RINK UNBOARDED,CRESCENT PARK,OUTDOOR RINK UNBOARDED,-104.56763106000,50.44161818620
696,945 REYNOLDS ST,BLOCK 11B PARK - OUTDOOR RINK SHELTER,BLOCK 11B PARK,OUTDOOR RINK SHELTER,-104.58889598200,50.46349521440
697,945 REYNOLDS STREET,BLOCK 11B PARK - OUTDOOR RINK UNBOARDED,BLOCK 11B PARK,OUTDOOR RINK UNBOARDED,-104.58898544200,50.46331954260
698,945 REYNOLDS STREET,BLOCK 11B PARK - OUTDOOR RINK BOARDED,BLOCK 11B PARK,OUTDOOR RINK BOARDED,-104.58899442800,50.46383551710
699,945 BRODER STREET,EASTVIEW PARK - BASKETBALL,EASTVIEW PARK,BASKETBALL,-104.59007745600,50.46373192710
700,945 BRODER STREET,EASTVIEW PARK - SPRAYPAD 945 BRODER ST @ 4TH AVE,EASTVIEW PARK,SPRAYPAD,-104.59047448700,50.46361496840
701,945 BRODER STREET,EASTVIEW PARK - ATHLETIC FIELD SOCCER ATHLETIC FIELD,EASTVIEW PARK,ATHLETIC FIELD,-104.59024292500,50.46448330560
702,945 BRODER ST,EASTVIEW PARK - PLAYGROUND 945 BRODER ST,EASTVIEW PARK,PLAYGROUND,-104.59029492700,50.46346675870
703,945 BRODER STREET,EASTVIEW PARK - BALL DIAMOND,EASTVIEW PARK,BALL DIAMOND,-104.59065719000,50.46526935400
704,542 HANSEN DR,HANSEN DR. PARK - PLAYGROUND 542 HANSEN DR,HANSEN DR. PARK,PLAYGROUND,-104.68503810500,50.47027022100
705,1803 E ASSINIBOINE AVE,RICHMOND PLACE ENVIRONMENTAL RESERVE - PLAYGROUND 1803 E ASSINIBOINE AVE,RICHMOND PLACE ENVIRONMENTAL RESERVE,PLAYGROUND,-104.55511263700,50.42136670190
706,3769 WASCANA PARKWAY,University of Regina - Luther College,University of Regina - Luther College,Other School,-104.58581618600,50.41854771920
707,3769 WASCANA PARKWAY,ADMINISTRATION HUMANITIES BUILDING,University of Regina,University of Regina,-104.58928829500,50.41916610110
708,3769 WASCANA PARKWAY,University of Regina - Campion College,University of Regina - Campion College,Other School,-104.58693652000,50.41853917560
709,3769 WASCANA PARKWAY,University of Regina - Wascana Parkway Campus,University of Regina - Wascana Parkway Campus,Other School,-104.59034190400,50.41914778310
710,3769 WASCANA PARKWAY,CAMPION COLLEGE,University of Regina,University of Regina,-104.58698194200,50.41825923640
711,3769 WASCANA PARKWAY,CLASSROOMS,University of Regina,University of Regina,-104.59143332300,50.41928044800
712,3769 WASCANA PARKWAY,COLLEGE WEST,University of Regina,University of Regina,-104.59158857100,50.41748071050
713,3769 WASCANA PARKWAY,DAY CARE,University of Regina,University of Regina,-104.59216434300,50.41775696550
714,3769 WASCANA PARKWAY,EDUCATION BUILDING,University of Regina,University of Regina,-104.58958911100,50.41680024220
715,3769 WASCANA PARKWAY,HEATING PLANT,University of Regina,University of Regina,-104.58842436100,50.41523637210
716,3769 WASCANA PARKWAY,LABORATORIES,University of Regina,University of Regina,-104.59203746100,50.41868154130
717,3769 WASCANA PARKWAY,LANGUAGE INSTITUTE,University of Regina,University of Regina,-104.58839759800,50.41885585250
718,3769 WASCANA PARKWAY,LIBRARY BUILDING,University of Regina,University of Regina,-104.59026686400,50.41888768550
719,3769 WASCANA PARKWAY,LUTHER COLLEGE,University of Regina,University of Regina,-104.58553758600,50.41809224520
720,3769 WASCANA PARKWAY,MAINTENANCE BUILDING,University of Regina,University of Regina,-104.58836016600,50.41444854170
721,3769 WASCANA PARKWAY,PHYSICAL ACTIVITY CENTRE,University of Regina,University of Regina,-104.58693826100,50.41723635720
722,3769 WASCANA PARKWAY,RIDDELL CENTRE AND STUDENT CENTRE,University of Regina,University of Regina,-104.59111524900,50.41665334000
723,5451 ROCHDALE BOULEVARD,LAKERIDGE SPORTS PARK/WINSTON MULTI - ATHLETIC FIELD MULTI-USE ATHLETIC FIELD,LAKERIDGE SPORTS PARK/WINSTON MULTI,ATHLETIC FIELD,-104.65616728800,50.49430955430
724,5451 ROCHDALE BOULEVARD,LAKERIDGE SPORTS PARK - BASKETBALL,LAKERIDGE SPORTS PARK,BASKETBALL,-104.65963117300,50.49533867920
725,5451 ROCHDALE BOULEVARD,LAKERIDGE SPORTS PARK - OUTDOOR SKATEBOARD PARK,LAKERIDGE SPORTS PARK,OUTDOOR SKATEBOARD PARK,-104.65905691200,50.49538507380
726,5451 ROCHDALE BOULEVARD,LAKERIDGE SPORTS PARK/WINSTON - BALL DIAMOND BS #219,LAKERIDGE SPORTS PARK/WINSTON,BALL DIAMOND,-104.65873668400,50.49478745630
727,302 UPLAND DRIVE,ST. GREGORY SCHOOL - BASKETBALL,ST. GREGORY SCHOOL,BASKETBALL,-104.61099901500,50.49254594470
728,302 UPLAND DR,ST. GREGORYSCHOOL - PLAYGROUND 302 UPLAND DR,ST. GREGORYSCHOOL,PLAYGROUND,-104.60991063500,50.49241875260
729,302 Upland Dr.,St. Gregory - Separate Elementary School,St. Gregory - Separate Elementary School,Separate Elementary School,-104.61050682100,50.49238866620
730,4025 25TH AVENUE,RUGBY PARK SOUTHEAST MULTI - ATHLETIC FIELD MULTI-USE ATHLETIC FIELD,RUGBY PARK SOUTHEAST MULTI,ATHLETIC FIELD,-104.63572363100,50.41654728340
731,4025 25TH AVE,REGINA RUGBY FIELDS - PLAYGROUND 4025 25TH AVE,REGINA RUGBY FIELDS,PLAYGROUND,-104.63882207900,50.41734438530
732,4025 25TH AVENUE,RUGBY PARK NORTHEAST MULTI - ATHLETIC FIELD MULTI-USE ATHLETIC FIELD,RUGBY PARK NORTHEAST MULTI,ATHLETIC FIELD,-104.63685787600,50.41788459910
733,4025 25TH AVENUE,RUGBY PARK NORTHWEST MULTI - ATHLETIC FIELD MULTI-USE ATHLETIC FIELD,RUGBY PARK NORTHWEST MULTI,ATHLETIC FIELD,-104.63801091000,50.41790493790
734,4025 25TH AVENUE,RUGBY PARK SOUTHWEST MULTI - ATHLETIC FIELD MULTI-USE ATHLETIC FIELD,RUGBY PARK SOUTHWEST MULTI,ATHLETIC FIELD,-104.63743676500,50.41675305180
735,2476 VICTORIA AVE,QUEEN ELIZABETH II COURT - FOUNTAIN,QUEEN ELIZABETH II COURT,FOUNTAIN,-104.61587026300,50.44753047760
736,460 ELPHINSTONE ST,A.C.T. BALL PARK - PLAYGROUND 460 ELPHINSTONE ST,A.C.T. BALL PARK,PLAYGROUND,-104.63357676800,50.47257664600
737,1120 14TH AVE,MAPLE LEAF PARK - PLAYGROUND 1120 14TH AVE,MAPLE LEAF PARK,PLAYGROUND,-104.59725633800,50.44448000120
738,1101 14TH AVE.,MAPLE LEAF - OUTDOOR POOL,MAPLE LEAF,OUTDOOR POOL,-104.59664258400,50.44437051070
739,281 RINK AVENUE,FIREHALL - ATHLETIC FIELD SOCCER ATHLETIC FIELD,FIREHALL,ATHLETIC FIELD,-104.65962631800,50.48772716270
740,2010 12TH AVE N,DICKINSON PARK - PLAYGROUND 2010 12TH AVE N,DICKINSON PARK,PLAYGROUND,-104.61076340100,50.49667938960
741,20 SHEPPARD STREET,SHEPPARD PARK/ST. PHILLIP - BALL DIAMOND BS #262,SHEPPARD PARK/ST. PHILLIP,BALL DIAMOND,-104.62500376300,50.47991810880
742,20 SHEPPARD STREET,SHEPPARD PARK/ST. PHILLIP - BALL DIAMOND BS #261,SHEPPARD PARK/ST. PHILLIP,BALL DIAMOND,-104.62385434000,50.47990980630
743,121 E BROADWAY AVENUE,QUEEN ELIZABETH JUBILEE MULTI - ATHLETIC FIELD MULTI-USE ATHLETIC FIELD,QUEEN ELIZABETH JUBILEE MULTI,ATHLETIC FIELD,-104.58096873200,50.43726930530
744,121 E BROADWAY AVENUE,QUEEN ELIZABETH JUBILEE PARK - SPRAYPAD 121 E BROADWAY AVE,QUEEN ELIZABETH JUBILEE PARK,SPRAYPAD,-104.58107785200,50.43633232850
745,111 E BROADWAY AVE,QUEEN ELIZABETH JUBILEE PARK - PLAYGROUND 111 E BROADWAY AVE,QUEEN ELIZABETH JUBILEE PARK,PLAYGROUND,-104.58165589700,50.43636609030
746,3085 ALBERT STREET,WALTER SCOTT BUILDING,Wascana Centre,Wascana Centre,-104.61657269600,50.43000787280
747,2925 4TH AVENUE N,QUEEN'S PARK/CORONATION - BALL DIAMOND BS #242,QUEEN'S PARK/CORONATION,BALL DIAMOND,-104.62297926800,50.47462971680
748,2925 4TH AVENUE N,QUEEN'S PARK/CORONATION - BALL DIAMOND BS #247,QUEEN'S PARK/CORONATION,BALL DIAMOND,-104.62302209700,50.47539648270
749,3860 BUCKINGHAM DR.,JACK MACKENZIE - BASKETBALL,JACK MACKENZIE,BASKETBALL,-104.52842300000,50.42993089510
750,3860 BUCKINGHAM DR,JACK MACKENZIE/ST. GABRIEL SCHOOL - PLAYGROUND 3860 BUCKINGHAM DR,JACK MACKENZIE/ST. GABRIEL SCHOOL,PLAYGROUND,-104.52763034300,50.43018815390
751,3860 BUCKINGHAM DRIVE,PRINCE WILLIAM/ST. GABRIEL - BALL DIAMOND,PRINCE WILLIAM/ST. GABRIEL,BALL DIAMOND,-104.52805346900,50.43095726810
752,3860 BUCKINGHAM DR.,ST. GABRIEL - BASKETBALL,ST. GABRIEL,BASKETBALL,-104.52722352700,50.43049689230
753,3860 E. BUCKINGHAM DR.,ARCOLA EAST COMMUNITY CENTRE - REC_NBHD FACILITY,ARCOLA EAST COMMUNITY CENTRE,REC_NBHD FACILITY,-104.52672504300,50.42957578100
754,3860 BUCKINGHAM DRIVE,PRINCE WILLIAM/JACK MACKENZIE SCHOOL - BALL DIAMOND,PRINCE WILLIAM/JACK MACKENZIE SCHOOL,BALL DIAMOND,-104.52954099400,50.43016266920
755,3860 BUCKINGHAM DRIVE,ST. GABRIEL - PLAYGROUND 3860 BUCKINGHAM DRIVE,ST. GABRIEL,PLAYGROUND,-104.52734218300,50.43029062240
756,3150 Windsor Park Rd.,St. Gabriel - Separate Elementary School,St. Gabriel - Separate Elementary School,Separate Elementary School,-104.52703009300,50.42984253100
757,3838 E. Buckingham Dr.,Jack MacKenzie - Public Elementary School,Jack MacKenzie - Public Elementary School,Public Elementary School,-104.52868028400,50.42984922690
758,2230 LINDSAY ST.,AL RITCHIE MEMORIAL - ARENA,AL RITCHIE MEMORIAL,ARENA,-104.58588070500,50.44367105380
759,445 14TH AVE.,CORE RITCHIE NEIGHBOURHOOD CENTRE - REC_NBHD FACILITY,CORE RITCHIE NEIGHBOURHOOD CENTRE,REC_NBHD FACILITY,-104.58672017300,50.44351082950
760,2230 LINDSAY ST,GOCKI PARK - BASKETBALL,GOCKI PARK,BASKETBALL,-104.58758471700,50.44365708030
761,2230 LINDSAY STREET,GOCKI PARK - SPRAYPAD 2230 LINDSAY ST & 14TH AVE,GOCKI PARK,SPRAYPAD,-104.58615304600,50.44280129180
762,2230 LINDSAY ST,GOCKI PARK - PLAYGROUND 2230 LINDSAY ST,GOCKI PARK,PLAYGROUND,-104.58603121600,50.44272554960
763,2230 LINDSAY STREET,GOCKI PARK MULTI - ATHLETIC FIELD SOCCER ATHLETIC FIELD,GOCKI PARK MULTI,ATHLETIC FIELD,-104.58712461500,50.44274988830
764,2230 LINDSAY STREET,GOCKI PARK - OUTDOOR TENNIS,GOCKI PARK,OUTDOOR TENNIS,-104.58542286100,50.44270000790
765,2230 LINDSAY STREET,GOCKI PARK - OUTDOOR RINK BOARDED,GOCKI PARK,OUTDOOR RINK BOARDED,-104.58754822500,50.44349943510
766,2230 LINDSAY ST,GOCKI PARK - OUTDOOR RINK SHELTER,GOCKI PARK,OUTDOOR RINK SHELTER,-104.58758089200,50.44312493630
767,1855 ROTHWELL ST,ST. MARK PARK - PLAYGROUND 1855 ROTHWELL ST,ST. MARK PARK,PLAYGROUND,-104.57001724300,50.44949635260
768,3025 MCDONALD STREET,DOUGLAS PARK WASHROOM - SEASONAL WASHROOM,DOUGLAS PARK WASHROOM,SEASONAL WASHROOM,-104.57819083100,50.42812154380
769,3025 MCDONALD STREET,DOUGLAS PARK NW - BALL DIAMOND BS #106,DOUGLAS PARK NW,BALL DIAMOND,-104.58255905500,50.42801890890
770,3025 MCDONALD STREET,DOUGLAS PARK WASHROOM/CHANGE ROOM BUNKER - SEASONAL WASHROOM,DOUGLAS PARK WASHROOM/CHANGE ROOM BUNKER,SEASONAL WASHROOM,-104.57821201300,50.42840763850
771,3025 MCDONALD STREET,DOUGLAS PARK SW - BALL DIAMOND BS #110,DOUGLAS PARK SW,BALL DIAMOND,-104.58209323500,50.42732003940
772,3025 MCDONALD STREET,DOUGLAS PARK (COSMOS) - BALL DIAMOND BS #103,DOUGLAS PARK (COSMOS),BALL DIAMOND,-104.57940941600,50.42893088130
773,3025 MCDONALD STREET,DOUGLAS PARK NE - BALL DIAMOND BS #105,DOUGLAS PARK NE,BALL DIAMOND,-104.58102502900,50.42803223870
774,3025 MCDONALD STREET,DOUGLAS PARK WEST SOCCER - ATHLETIC FIELD SOCCER ATHLETIC FIELD,DOUGLAS PARK WEST SOCCER,ATHLETIC FIELD,-104.58254756800,50.43079731450
775,3025 MCDONALD STREET,DOUGLAS PARK EAST SOCCER  - ATHLETIC FIELD SOCCER ATHLETIC FIELD,DOUGLAS PARK EAST SOCCER,ATHLETIC FIELD,-104.58026749300,50.43093377120
776,3025 MCDONALD STREET,DOUGLAS PARK SE - BALL DIAMOND BS #104,DOUGLAS PARK SE,BALL DIAMOND,-104.58100409400,50.42706173980
777,3025 MCDONALD STREET,DOUGLAS PARK (LEIBEL) - ATHLETIC FIELD MULTI-USE ATHLETIC FIELD,DOUGLAS PARK (LEIBEL),ATHLETIC FIELD,-104.57997210400,50.42752417530
778,3025 MCDONALD STREET,DOUGLAS PARK - OUTDOOR TENNIS,DOUGLAS PARK,OUTDOOR TENNIS,-104.57714402600,50.42851445000
779,1464 BROADWAY AVE,TARTAN - CURLING CLUB,TARTAN,CURLING CLUB,-104.60189978600,50.43814906520
780,725 EMPRESS STREET,TRANSCONA PLAYGROUND - BALL DIAMOND BS #162,TRANSCONA PLAYGROUND,BALL DIAMOND,-104.65285981100,50.46547292940
781,725 EMPRESS ST,TRANSCONA - PLAYGROUND 725 EMPRESS ST,TRANSCONA,PLAYGROUND,-104.65344273300,50.46531076830
782,1660 9TH AVENUE N,ROBERT USHER MULTI - ATHLETIC FIELD MULTI-USE ATHLETIC FIELD,ROBERT USHER MULTI,ATHLETIC FIELD,-104.60409186600,50.48532993300
783,20 WAKEFIELD CRESCENT,SHERWOOD PARK/ELSIE MIRONUCK - BALL DIAMOND BS #204,SHERWOOD PARK/ELSIE MIRONUCK,BALL DIAMOND,-104.65031614300,50.47990307350
784,20 WAKEFIELD CRES,ELSIE MIRONUCK SCHOOL - OUTDOOR RINK SHELTER,ELSIE MIRONUCK SCHOOL,OUTDOOR RINK SHELTER,-104.64825344000,50.47923360480
785,20 WAKEFIELD CRESCENT,SHERWOOD PARK/ELSIE MIRONUCK - BALL DIAMOND BS #203,SHERWOOD PARK/ELSIE MIRONUCK,BALL DIAMOND,-104.64919667400,50.47989653020
786,20 WAKEFIELD CRESCENT,SHERWOOD PARK - OUTDOOR RINK UNBOARDED,SHERWOOD PARK,OUTDOOR RINK UNBOARDED,-104.64843577300,50.47931515170
787,20 WAKEFIELD CRESCENT,SHERWOOD PARK - OUTDOOR RINK BOARDED,SHERWOOD PARK,OUTDOOR RINK BOARDED,-104.64876719200,50.47943805300
788,20 WAKEFIELD CRESCENT,SHERWOOD PARK - ATHLETIC FIELD SOCCER ATHLETIC FIELD,SHERWOOD PARK,ATHLETIC FIELD,-104.64983227400,50.47939681340
789,20 WAKEFIELD CRES,SHERWOOD PARK - PLAYGROUND 20 WAKEFIELD CRES,SHERWOOD PARK,PLAYGROUND,-104.64812969400,50.47952184870
790,20 WAKEFIELD CRES,ELSIE MIRONUCK SCHOOL - PLAYGROUND 20 WAKEFIELD CRES,ELSIE MIRONUCK SCHOOL,PLAYGROUND,-104.64924011900,50.47836640460
791,18 Wakefield Cr.,Elsie Mironuk - Public Elementary School,Elsie Mironuk - Public Elementary School,Public Elementary School,-104.64948650800,50.47870281460
792,125 PAYNTER CRES,MCLURG SCHOOL - PLAYGROUND 125 PAYNTER CRES,MCLURG SCHOOL,PLAYGROUND,-104.68032312700,50.47301238810
793,125 PAYNTER CRESCENT,MCLURG SCHOOL - ATHLETIC FIELD SOCCER ATHLETIC FIELD,MCLURG SCHOOL,ATHLETIC FIELD,-104.67922293100,50.47275605680
794,125 PAYNTER CRESCENT,MCLURG SCHOOL - BALL DIAMOND BS #200,MCLURG SCHOOL,BALL DIAMOND,-104.67883272600,50.47290983880
795,125 PAYNTER CRESCENT,MCLURG SCHOOL - BASKETBALL,MCLURG SCHOOL,BASKETBALL,-104.68022326100,50.47253231200
796,125 Paynter Cr.,McLurg - Public Elementary School,McLurg - Public Elementary School,Public Elementary School,-104.68001916900,50.47252425730
797,100 PROCTER PL,PROCTER PARK - PLAYGROUND 100 PROCTER PL,PROCTER PARK,PLAYGROUND,-104.61419178700,50.41708058320
798,1033 EDGAR ST,HAULTAIN SCHOOL - PLAYGROUND 1033 EDGAR ST,HAULTAIN SCHOOL,PLAYGROUND,-104.58685338500,50.46249521740
799,1033 EDGAR STREET,HAULTAIN SCHOOL - ATHLETIC FIELD SOCCER ATHLETIC FIELD,HAULTAIN SCHOOL,ATHLETIC FIELD,-104.58725861400,50.46165817530
800,1033 EDGAR STREET,HAULTAIN SCHOOL - BASKETBALL,HAULTAIN SCHOOL,BASKETBALL,-104.58725235500,50.46193286120
801,1033 EDGAR STREET,HAULTAIN SCHOOL - BALL DIAMOND BS #291,HAULTAIN SCHOOL,BALL DIAMOND,-104.58770738500,50.46156887530
802,1033 Edgar St.,Haultain - Public Elementary School,Haultain - Public Elementary School,Public Elementary School,-104.58725257500,50.46208426240
803,5255 Rochdale Blvd.,Winston Knoll Collegiate - Public High School,Winston Knoll Collegiate - Public High School,Public High School,-104.65614612000,50.49524723360
804,281 TRIFUNOV CRES,GARUIK PARK - PLAYGROUND 281 TRIFUNOV CRES,GARUIK PARK,PLAYGROUND,-104.63821720600,50.49183416270
805,2710 HELMSING STREET,W.F. READY SCHOOL - BASKETBALL,W.F. READY SCHOOL,BASKETBALL,-104.54016982200,50.43745813190
806,2710 HELMSING STREET,W.F. READY SCHOOL - BALL DIAMOND BS #69,W.F. READY SCHOOL,BALL DIAMOND,-104.54007717400,50.43812916640
807,2710 HELMSING ST,W.F. READY SCHOOL - PLAYGROUND 2710 HELMSING ST,W.F. READY SCHOOL,PLAYGROUND,-104.53948698900,50.43787449870
808,2710 Helmsing St.,W. F. Ready - Public Elementary School,W. F. Ready - Public Elementary School,Public Elementary School,-104.53988426100,50.43742365380
809,750 PASQUA ST,KINSMEN PARK NORTH - SEASONAL WASHROOM,KINSMEN PARK NORTH,SEASONAL WASHROOM,-104.64198251200,50.46598729170
810,850 PASQUA STREET,KINSMEN PARK NORTH NW - BALL DIAMOND BS #185,KINSMEN PARK NORTH NW,BALL DIAMOND,-104.64285242300,50.46588288220
811,850 PASQUA STREET,KINSMEN PARK NORTH SW - BALL DIAMOND BS #166,KINSMEN PARK NORTH SW,BALL DIAMOND,-104.64276011700,50.46464462280
812,850 PASQUA STREET,KINSMEN PARK NORTH NE - BALL DIAMOND BS #168,KINSMEN PARK NORTH NE,BALL DIAMOND,-104.64152342500,50.46578419000
813,850 PASQUA STREET,KINSMEN PARK NORTH - BALL DIAMOND BS #186,KINSMEN PARK NORTH,BALL DIAMOND,-104.64291426500,50.46520306970
814,850 PASQUA STREET,KINSMEN PARK NORTH SE - BALL DIAMOND BS #167,KINSMEN PARK NORTH SE,BALL DIAMOND,-104.64150562000,50.46477861810
815,2180 23RD AVE,WASCANA REHABILITATION CENTRE,WASCANA REHABILITATION CENTRE,Hospital,-104.61115757700,50.42506099810
816,2180 23RD AVENUE,WASCANA REHABILITATION CENTRE,Wascana Centre,Wascana Centre,-104.61093367600,50.42518967230
817,1912 E 7TH AVENUE,STEWART RUSSELL PARK - OUTDOOR RINK UNBOARDED,STEWART RUSSELL PARK,OUTDOOR RINK UNBOARDED,-104.55608858500,50.45902909650
818,1912 E 7TH AVENUE,STEWART RUSSELL SCHOOL CENTRAL - BALL DIAMOND BS #91,STEWART RUSSELL SCHOOL CENTRAL,BALL DIAMOND,-104.55601236400,50.45956511400
819,1912 E 7TH AVENUE,STEWART RUSSELL SCHOOL NORTH - BALL DIAMOND BS #90,STEWART RUSSELL SCHOOL NORTH,BALL DIAMOND,-104.55603169800,50.46023001890
820,1912 E 7TH AVE,STEWART RUSSELL PARK - OUTDOOR RINK SHELTER,STEWART RUSSELL PARK,OUTDOOR RINK SHELTER,-104.55633760400,50.45890703460
821,1912 E 7TH AVE,STEWART RUSSELL PARK - PLAYGROUND 1912 E 7TH AVE,STEWART RUSSELL PARK,PLAYGROUND,-104.55593693000,50.45874077280
822,1912 E 7TH AVENUE,STEWART RUSSELL PARK - ATHLETIC FIELD SOCCER ATHLETIC FIELD,STEWART RUSSELL PARK,ATHLETIC FIELD,-104.55492322800,50.45987909350
823,5560 LEIBEL CRES,LAKERIDGE PARK N - PLAYGROUND 5560 LEIBEL CRES,LAKERIDGE PARK N,PLAYGROUND,-104.65872484400,50.50236165710
824,5560 LEIBEL CRESCENT,LAKERIDGE PARK - BASKETBALL,LAKERIDGE PARK,BASKETBALL,-104.65910141400,50.50170206600
825,5560 LEIBEL CRES,LAKERIDGE PARK - PARK WATER FEATURE,LAKERIDGE PARK,PARK WATER FEATURE,-104.65860164700,50.50171513990
826,1717 ELPHINSTONE ST,REGINA SPORTPLEX - INDOOR POOL,REGINA SPORTPLEX,INDOOR POOL,-104.63010998300,50.45146867730
827,1717 ELPHINSTONE ST.,REGINA SPORTPLEX  - REC_NBHD FACILITY,REGINA SPORTPLEX,REC_NBHD FACILITY,-104.63022952300,50.45109494900
828,1717 ELPHINSTONE STREET,REGINA SPORTPLEX - BASKETBALL,REGINA SPORTPLEX,BASKETBALL,-104.62789401300,50.45063554220
829,1717 ELPHINSTONE ST.,REGINA SPORTPLEX - INDOOR TENNIS,REGINA SPORTPLEX,INDOOR TENNIS,-104.63011653900,50.45067292390
830,2188 BRODER ST.,PRINCE OF WALES BRANCH LIBRARY,PRINCE OF WALES BRANCH LIBRARY,Library,-104.59123992200,50.44412725930
831,2440 BROAD STREET,CBC BUILDING,Wascana Centre,Wascana Centre,-104.60792087600,50.43912475530
832,19 LORIMER CRESCENT,LORIMER PARK - ATHLETIC FIELD SOCCER ATHLETIC FIELD,LORIMER PARK,ATHLETIC FIELD,-104.63751452000,50.48144838370
833,19 LORIMER CRES,LORIMER PARK - PLAYGROUND 19 LORIMER CRES,LORIMER PARK,PLAYGROUND,-104.63731078500,50.48087105120
834,1340 ROBINSON STREET,ALBERT SCHOOL - ATHLETIC FIELD SOCCER ATHLETIC FIELD,ALBERT SCHOOL,ATHLETIC FIELD,-104.62506040400,50.45788061260
835,1340 ROBINSON ST,ALBERT SCHOOL - PLAYGROUND 1340 ROBINSON ST,ALBERT SCHOOL,PLAYGROUND,-104.62488125200,50.45747036180
836,1340 ROBINSON STREET,ALBERT SCHOOL - BALL DIAMOND BS #120,ALBERT SCHOOL,BALL DIAMOND,-104.62424215900,50.45810944170
837,1340 ROBINSON ST,ALBERT SCHOOL - BASKETBALL,ALBERT SCHOOL,BASKETBALL,-104.62458691800,50.45763643020
838,1340 Robinson St.,Albert - Public Elementary School,Albert - Public Elementary School,Public Elementary School,-104.62451388900,50.45758041090
839,4210 4TH AVE,WASCANA SCHOOL - PLAYGROUND 4210 4TH AVE,WASCANA SCHOOL,PLAYGROUND,-104.64288115800,50.46369697330
840,4210 4TH AVENUE,WASCANA SCHOOL - BASKETBALL,WASCANA SCHOOL,BASKETBALL,-104.64170238400,50.46400397770
841,4210 4TH AVENUE,WASCANA SCHOOL - ATHLETIC FIELD SOCCER ATHLETIC FIELD,WASCANA SCHOOL,ATHLETIC FIELD,-104.64213887700,50.46422998020
842,4210 4th Ave.,Wascana - Public Elementary School,Wascana - Public Elementary School,Public Elementary School,-104.64206147500,50.46373782310
843,3500 QUEEN STREET,MCLEOD PARK - BALL DIAMOND,MCLEOD PARK,BALL DIAMOND,-104.63761455300,50.42424067250
844,169 CANNON ST,CLERMONT PARK - PLAYGROUND 169 CANNON ST,CLERMONT PARK,PLAYGROUND,-104.55150946200,50.45716716900
845,2160 CAMERON ST,HOLY ROSARY SCHOOL - PLAYGROUND 2160 CAMERON ST,HOLY ROSARY SCHOOL,PLAYGROUND,-104.62679694500,50.44411751910
846,2160 CAMERON STREET,HOLY ROSARY SCHOOL  - OUTDOOR RINK SHELTER,HOLY ROSARY SCHOOL,OUTDOOR RINK SHELTER,-104.62685656100,50.44454085830
847,2160 CAMERON STREET,HOLY ROSARY SCHOOL - BASKETBALL,HOLY ROSARY SCHOOL,BASKETBALL,-104.62674521900,50.44412102210
848,2160 CAMERON STREET,HOLY ROSARY SCHOOL - BASKETBALL,HOLY ROSARY SCHOOL,BASKETBALL,-104.62655881200,50.44453610090
849,3118 14th Ave.,Holy Rosary - Separate Elementary School,Holy Rosary - Separate Elementary School,Separate Elementary School,-104.62613657500,50.44431200920
850,102 MASSEY ROAD,CAMPBELL COLLEGIATE - BALL DIAMOND,CAMPBELL COLLEGIATE,BALL DIAMOND,-104.61218902300,50.41157334350
851,102 MASSEY ROAD,CAMPBELL COLLEGIATE - OUTDOOR TENNIS,CAMPBELL COLLEGIATE,OUTDOOR TENNIS,-104.61217210200,50.41298789410
852,102 MASSEY ROAD,CAMPBELL COLLEGIATE - ATHLETIC FIELD SOCCER ATHLETIC FIELD,CAMPBELL COLLEGIATE,ATHLETIC FIELD,-104.61101602200,50.41177543890
853,102 Massey Rd.,Campbell Collegiate - Public High School,Campbell Collegiate - Public High School,Public High School,-104.61067040800,50.41233533390
854,2952 HARDING STREET,HARDING PARK  - ATHLETIC FIELD SOCCER ATHLETIC FIELD,HARDING PARK,ATHLETIC FIELD,-104.54921216600,50.43132058960
855,2952 HARDING STREET,HARDING PARK - BALL DIAMOND BS #107,HARDING PARK,BALL DIAMOND,-104.54929141500,50.43299313720
856,400 FINES DRIVE,F.W. JOHNSON HIGH SCHOOL - BALL DIAMOND,F.W. JOHNSON HIGH SCHOOL,BALL DIAMOND,-104.54791932100,50.45136738910
857,400 FINES DRIVE,F.W. JOHNSON HIGH SCHOOL - BALL DIAMOND,F.W. JOHNSON HIGH SCHOOL,BALL DIAMOND,-104.54590434000,50.45136863480
858,400 FINES DRIVE,F.W. JOHNSON MULTI - ATHLETIC FIELD MULTI-USE ATHLETIC FIELD,F.W. JOHNSON MULTI,ATHLETIC FIELD,-104.54619257800,50.45026509580
859,400 Fines Dr.,F. W. Johnson Collegiate - Public High School,F. W. Johnson Collegiate - Public High School,Public High School,-104.54670718200,50.45031261730
860,40 Dixon Cr.,Cornwall Alternative School - 40 Dixon Cr.,Cornwall Alternative School - 40 Dixon Cr.,Other School,-104.56580840600,50.44201617880
861,3211 E TREGARVA DR.,SPRUCE MEADOWS - PLAYGROUND 3211 E TREGARVA DR.,SPRUCE MEADOWS,PLAYGROUND,-104.53613571300,50.44188991280
862,2125 ATHOL STREET,HOLY ROSARY PARK - BALL DIAMOND,HOLY ROSARY PARK,BALL DIAMOND,-104.62714937000,50.44467515640
863,4235 MCCALLUM AVENUE,COLUMBUS PARK SSW - BALL DIAMOND BS #54,COLUMBUS PARK SSW,BALL DIAMOND,-104.64224738300,50.43152393380
864,1450 CARLTON ST,CARLTON PARK - PLAYGROUND 1450 CARLTON ST,CARLTON PARK,PLAYGROUND,-104.67144050200,50.45623357330
865,6410 HEFFERNAN DR,HAMPSHIRE PARK - PLAYGROUND 6410 HEFFERNAN DR,HAMPSHIRE PARK,PLAYGROUND,-104.67353712300,50.49299097490
866,220 FINES DR,COLEMAN PARK - PLAYGROUND 220 FINES DR,COLEMAN PARK,PLAYGROUND,-104.54285427000,50.44962140380
867,1202 N RADWAY ST,WHELAN/RADWAY PARK - PLAYGROUND 1202 N RADWAY ST,WHELAN/RADWAY PARK,PLAYGROUND,-104.66940660800,50.49847573430
868,121 MAYFIELD ROAD,UNIVERSITY PARK - BALL DIAMOND BS #72,UNIVERSITY PARK,BALL DIAMOND,-104.56258159800,50.43040804590
869,3435 13TH AVE.,CONNAUGHT BRANCH LIBRARY,CONNAUGHT BRANCH LIBRARY,Library,-104.63074195600,50.44527970450
870,3025 WASCANA CIR,WASCANA VIEW PARK - PLAYGROUND 3025 WASCANA CIR,WASCANA VIEW PARK,PLAYGROUND,-104.54125217100,50.41682734190
871,398 N MCCARTHY BLVD,NORMANVIEW MALL,NORMANVIEW MALL,Mall,-104.66663009100,50.48248998730
872,2787 GORDON RD.,GEORGE BOTHWELL BRANCH LIBRARY,GEORGE BOTHWELL BRANCH LIBRARY,Library,-104.62225335600,50.40238917480
873,2965 GORDON RD,SOUTHLAND MALL,SOUTHLAND MALL,Mall,-104.62271226500,50.40275741380
874,5215 14TH AVE,"RAMBLER PARK, SLO PITCH SE - BALL DIAMOND","RAMBLER PARK, SLO PITCH SE",BALL DIAMOND,-104.65882033000,50.44296578460
875,5215 14TH AVE,"RAMBLER PARK, FASTBALL W - BALL DIAMOND FASTBALL NE (CANADA GAMES 2005 DIAMOND)","RAMBLER PARK, FASTBALL W",BALL DIAMOND,-104.65824869400,50.44499423110
876,5215 14TH AVE,"RAMBLER PARK, SLO PITCH SW - BALL DIAMOND","RAMBLER PARK, SLO PITCH SW",BALL DIAMOND,-104.66167646400,50.44332250240
877,5215 14TH AVE,"RAMBLER PARK, SLO PITCH SSW - BALL DIAMOND BS #181 SLO PITCH SSW","RAMBLER PARK, SLO PITCH SSW",BALL DIAMOND,-104.66085401200,50.44237251410
878,5215 14TH AVE,"RAMBLER PARK, FASTBALL SEE - BALL DIAMOND","RAMBLER PARK, FASTBALL SEE",BALL DIAMOND,-104.65392988200,50.44328578860
879,5215 14TH AVE,"RAMBLER PARK, SLO PITCH SEE - BALL DIAMOND BS #184 SLO PITCH SSE","RAMBLER PARK, SLO PITCH SEE",BALL DIAMOND,-104.65755448300,50.44298993700
880,5215 14TH AVE,"RAMBLER PARK, FASTBALL SWW - BALL DIAMOND","RAMBLER PARK, FASTBALL SWW",BALL DIAMOND,-104.66318255400,50.44327113190
881,5215 14TH AVE,"RAMBLER PARK, FASTBALL CENTRAL - BALL DIAMOND FASTBALL NE (CANADA GAMES 2005 DIAMOND)","RAMBLER PARK, FASTBALL CENTRAL",BALL DIAMOND,-104.65674626000,50.44469278250
882,5215 14TH AVE,"RAMBLER PARK, FASTBALL E - BALL DIAMOND FASTBALL NEE (CANADA GAMES 2005 DIAMOND)","RAMBLER PARK, FASTBALL E",BALL DIAMOND,-104.65522743400,50.44491053230
883,5215 14TH AVE,"RAMBLER PARK, BASEBALL NWW - BALL DIAMOND","RAMBLER PARK, BASEBALL NWW",BALL DIAMOND,-104.66229838300,50.44485718210
884,5215 14TH AVE,"RAMBLER PARK, FASTBALL SE - BALL DIAMOND","RAMBLER PARK, FASTBALL SE",BALL DIAMOND,-104.65565237600,50.44348599190
885,5215 14TH AVE,"RAMBLER PARK, SLO PITCH SW - BALL DIAMOND BS #182 SLO PITCH SW","RAMBLER PARK, SLO PITCH SW",BALL DIAMOND,-104.66025526200,50.44370854750
886,489 ALBERT ST N,NORTHGATE MALL,NORTHGATE MALL,Mall,-104.61531298900,50.48295063630
887,2225 SANDRA SCHMIRLER WAY,CALEDONIAN - CURLING CLUB,CALEDONIAN,CURLING CLUB,-104.65125110100,50.44276147710
888,2475 ELPHINSTONE ST,KIWANIS PARK EXT. - PLAYGROUND 2475 ELPHINSTONE ST,KIWANIS PARK EXT.,PLAYGROUND,-104.62788278000,50.43901146660
889,460 ELPHINSTONE STREET,A.C.T. BALL PARK SE - BALL DIAMOND BS #271,A.C.T. BALL PARK SE,BALL DIAMOND,-104.63350683600,50.47201428910
890,460 ELPHINSTONE STREET,A.C.T. BALL PARK SSE - BALL DIAMOND BS #270,A.C.T. BALL PARK SSE,BALL DIAMOND,-104.63227922100,50.47157324710
891,460 ELPHINSTONE STREET,A.C.T. BALL PARK SW - BALL DIAMOND BS #269,A.C.T. BALL PARK SW,BALL DIAMOND,-104.63454848800,50.47211260100
892,460 ELPHINSTONE STREET,A.C.T. BALL PARK NE - BALL DIAMOND BS #273,A.C.T. BALL PARK NE,BALL DIAMOND,-104.63230453100,50.47214988530
893,460 ELPHINSTONE STREET,A.C.T. BALL PARK NW - BALL DIAMOND BS #274,A.C.T. BALL PARK NW,BALL DIAMOND,-104.63557710100,50.47261635250
894,3806 ALBERT ST,GOLDEN MILE SHOPPING CENTRE,GOLDEN MILE SHOPPING CENTRE,Mall,-104.62023259900,50.41725578600
895,200 LAKESHORE DRIVE,SASKATCHEWAN CENTRE OF THE ARTS,Wascana Centre,Wascana Centre,-104.59783431000,50.42835338610
896,6121 ROCHDALE BLVD.,SHERWOOD VILLAGE BRANCH LIBRARY,SHERWOOD VILLAGE BRANCH LIBRARY,Library,-104.66896903600,50.49521768130
897,2505 23RD AVENUE,REGINA CHRISTIAN SCHOOL - BASKETBALL,REGINA CHRISTIAN SCHOOL,BASKETBALL,-104.61674098200,50.42270517610
898,2505  23rd Ave.,Regina Christian - Public Elementary School,Regina Christian - Public Elementary School,Public Elementary School,-104.61669352700,50.42231210380
899,5875 ROCHDALE BLVD,SHERWOOD MALL,SHERWOOD MALL,Mall,-104.66564731800,50.49507462860
900,7907 VENTURE RD,VENTURE PARK - PLAYGROUND 7907 VENTURE RD,VENTURE PARK,PLAYGROUND,-104.69537693600,50.47846651610
901,4527 ELLARD WAY,LAKERIDGE MR8 - PLAYGROUND 4527 ELLARD WAY,LAKERIDGE MR8,PLAYGROUND,-104.64634988500,50.50408790560
902,115 FAIRVIEW RD,M.J. COLDWELL PARK - PLAYGROUND 115 FAIRVIEW RD,M.J. COLDWELL PARK,PLAYGROUND,-104.61119569800,50.49052171810
903,115 FAIRVIEW ROAD,M.J. COLDWELL PARK - OUTDOOR RINK BOARDED,M.J. COLDWELL PARK,OUTDOOR RINK BOARDED,-104.61073344500,50.49020302010
904,115 FAIRVIEW RD,M.J. COLDWELL PARK - OUTDOOR RINK SHELTER,M.J. COLDWELL PARK,OUTDOOR RINK SHELTER,-104.61070655700,50.48979186460
905,115 FAIRVIEW ROAD,M.J. COLDWELL PARK - OUTDOOR RINK UNBOARDED,M.J. COLDWELL PARK,OUTDOOR RINK UNBOARDED,-104.61074869300,50.49058532000
906,115 FAIRVIEW ROAD,M.J. COLDWELL - ATHLETIC FIELD SOCCER ATHLETIC FIELD,M.J. COLDWELL,ATHLETIC FIELD,-104.61183899600,50.49000252520
907,1230 BROAD ST,CENTENNIAL MALL,CENTENNIAL MALL,Mall,-104.60787569400,50.45917475130
908,3025 WASCANA CIR,WASCANA VIEW PARK - PLAYGROUND 3025 WASCANA CIR,WASCANA VIEW PARK,PLAYGROUND,-104.53958789800,50.42015619650
909,3025 WASCANA CIRCLE,WASCANA VIEW PARK - PARK WATER FEATURE,WASCANA VIEW PARK,PARK WATER FEATURE,-104.54084307800,50.42131525350
910,3000 WASCANA DRIVE,PARK PLACE RESTAURANT,Wascana Centre,Wascana Centre,-104.60654650400,50.43104530390
911,2440 25TH AVENUE,LEBOLDUS MULTI - ATHLETIC FIELD SOCCER ATHLETIC FIELD,LEBOLDUS MULTI,ATHLETIC FIELD,-104.61549882400,50.42019390420
912,2440 25TH AVENUE,DR. MARTIN LEBOLDUS HIGH SCHOOL - OUTDOOR TENNIS,DR. MARTIN LEBOLDUS HIGH SCHOOL,OUTDOOR TENNIS,-104.61548795600,50.41904861840
913,1101 N FLEET STREET,SANITARY LANDFILL,SANITARY LANDFILL,SANITARY LANDFILL,-104.54793939400,50.49066986710
914,4215 SHERWOOD DR,ARTHUR PARK - PLAYGROUND 4215 SHERWOOD DR,ARTHUR PARK,PLAYGROUND,-104.65147026200,50.47483409560
915,6024 WHELAN DRIVE,LAKEWOOD PARK - OUTDOOR TENNIS,LAKEWOOD PARK,OUTDOOR TENNIS,-104.66801333900,50.49941187240
916,6024 WHELAN DRIVE,LAKEWOOD MULTI - ATHLETIC FIELD MULTI-USE ATHLETIC FIELD,LAKEWOOD MULTI,ATHLETIC FIELD,-104.67031338500,50.50210764170
917,6024 WHELAN DR,LAKEWOOD PARK - PLAYGROUND 6024 WHELAN DR,LAKEWOOD PARK,PLAYGROUND,-104.66823442900,50.49970788750
918,6024 WHELAN DRIVE,LAKEWOOD PARK - PARK WATER FEATURE,LAKEWOOD PARK,PARK WATER FEATURE,-104.66985980500,50.50107380680
919,5221 DEWDNEY AVENUE,OPTIMIST PARK MULTI - ATHLETIC FIELD MULTI-USE ATHLETIC FIELD,OPTIMIST PARK MULTI,ATHLETIC FIELD,-104.65501200600,50.45374126830
920,3860 BUCKINGHAM DR,PRINCE WILLIAM PARK - PLAYGROUND 3860 BUCKINGHAM DR,PRINCE WILLIAM PARK,PLAYGROUND,-104.53067074400,50.43099570320
921,2901 POWERHOUSE DRIVE,REGINA SKATEPLAZA - OUTDOOR SKATEBOARD PARK,REGINA SKATEPLAZA,OUTDOOR SKATEBOARD PARK,-104.59378269900,50.43343695690
922,2901 POWERHOUSE DRIVE,KRAMER IMAX THEATRE,Wascana Centre,Wascana Centre,-104.59387885300,50.43283672800
923,2901 POWERHOUSE DRIVE,SASKATCHEWAN SCIENCE CENTRE AND SPC,Wascana Centre,Wascana Centre,-104.59468218900,50.43320982750
924,3800 E CUMBERLAND RD,PRINCE OF WALES PARK - PLAYGROUND 3800 E CUMBERLAND RD,PRINCE OF WALES PARK,PLAYGROUND,-104.52828963700,50.43751003470
925,3800 E CUMBERLAND RD,PRINCE OF WALES PARK - ATHLETIC FIELD,PRINCE OF WALES PARK,ATHLETIC FIELD,-104.52949063300,50.43851145160
926,3800 E CUMBERLAND RD,PRINCE OF WALES PARK - BASKETBALL,PRINCE OF WALES PARK,BASKETBALL,-104.52863835800,50.43741098090
927,110 GREENWOOD CRESCENT,ST. JOSAPHAT SCHOOL PARK NE - BALL DIAMOND BS #210,ST. JOSAPHAT SCHOOL PARK NE,BALL DIAMOND,-104.68004844300,50.47709853320
928,110 GREENWOOD CRESCENT,ST. JOSAPHAT SCHOOL PARK NW - BALL DIAMOND BS #209,ST. JOSAPHAT SCHOOL PARK NW,BALL DIAMOND,-104.68106308600,50.47709112120
929,1515 ROYAL STREET,LUTHER HIGH SCHOOL - ATHLETIC FIELD,LUTHER HIGH SCHOOL,ATHLETIC FIELD,-104.64996931100,50.45276141900
930,750 RINK AVENUE,HAYWORTH CR. PARK - ATHLETIC FIELD SOCCER ATHLETIC FIELD,HAYWORTH CR. PARK,ATHLETIC FIELD,-104.68214232500,50.48991879530
931,750 RINK AVENUE,ST. JEROME MULTI - ATHLETIC FIELD MULTI-USE ATHLETIC FIELD,ST. JEROME MULTI,ATHLETIC FIELD,-104.68037754600,50.48887823850
932,750 RINK AVENUE,ST. JEROME PARK - BALL DIAMOND BS #206,ST. JEROME PARK,BALL DIAMOND,-104.68084466400,50.48801502460
933,750 RINK AVENUE,HAYWORTH CR. PARK/CENTENNIAL - BALL DIAMOND BS #194,HAYWORTH CR. PARK/CENTENNIAL,BALL DIAMOND,-104.68166474600,50.49133677600
934,2753 AVONHURST DR,AVON SHOPPING CENTRE,AVON SHOPPING CENTRE,Mall,-104.62065413500,50.46999448510
935,601 19TH AVENUE,WASCANA PARK - CANDY CANE  - PLAYGROUND WASCANA CENTRE,WASCANA PARK - CANDY CANE,PLAYGROUND,-104.58842278100,50.43379464230
936,4400 4th Ave.,Western Christian College and High School - 4400 4th Ave.,Western Christian College and High School - 4400 4th Ave.,Other School,-104.64489341100,50.46336474050
937,3502 E EASTGATE DR,EASTGATE PARK PR2 - PLAYGROUND 3502 E EASTGATE DR,EASTGATE PARK PR2,PLAYGROUND,-104.53473039500,50.45325604870
938,5000 E ARCOLA AVENUE,"PACERS SPORTS PARK, ROOKIES 2 - BALL DIAMOND","PACERS SPORTS PARK, ROOKIES 2",BALL DIAMOND,-104.50392859300,50.41184996350
939,5000 E ARCOLA AVENUE,"PACERS SPORTS PARK, PEEWEE - BALL DIAMOND","PACERS SPORTS PARK, PEEWEE",BALL DIAMOND,-104.50785602000,50.41350656840
940,5000 E ARCOLA AVENUE,"PACERS SPORTS PARK, MOSQUITO 1 - BALL DIAMOND","PACERS SPORTS PARK, MOSQUITO 1",BALL DIAMOND,-104.50394030000,50.41345956970
941,5000 E ARCOLA AVENUE,"PACERS SPORTS PARK, MIDGET PRACTICE - BALL DIAMOND","PACERS SPORTS PARK, MIDGET PRACTICE",BALL DIAMOND,-104.50729863600,50.41225907880
942,5000 E ARCOLA AVENUE,"PACERS SPORTS PARK, BANTAM - BALL DIAMOND","PACERS SPORTS PARK, BANTAM",BALL DIAMOND,-104.50641158600,50.41347008010
943,5000 E ARCOLA AVENUE,"PACERS SPORTS PARK, MOSQUITO 2 - BALL DIAMOND","PACERS SPORTS PARK, MOSQUITO 2",BALL DIAMOND,-104.50484327100,50.41346341620
944,5000 E ARCOLA AVENUE,"PACERS SPORTS PARK, MIDGET CLASS 1 - BALL DIAMOND","PACERS SPORTS PARK, MIDGET CLASS 1",BALL DIAMOND,-104.50554058500,50.41222125330
945,5000 E ARCOLA AVENUE,"PACERS SPORTS PARK, ROOKIES 1 - BALL DIAMOND","PACERS SPORTS PARK, ROOKIES 1",BALL DIAMOND,-104.50396723900,50.41270045950
946,1245 COLLEGE AVENUE,BALFOUR HIGH SCHOOL - OUTDOOR TENNIS,BALFOUR HIGH SCHOOL,OUTDOOR TENNIS,-104.60025279200,50.43944294510
947,1245 COLLEGE AVENUE,BALFOUR HIGH SCHOOL - BASKETBALL,BALFOUR HIGH SCHOOL,BASKETBALL,-104.59983692200,50.43939534550
948,1245 COLLEGE AVENUE,BALFOUR HIGH SCHOOL - BALL DIAMOND BS #62,BALFOUR HIGH SCHOOL,BALL DIAMOND,-104.60032331500,50.43906008090
949,1245 COLLEGE AVENUE,BALFOUR HIGH SCHOOL - ATHLETIC FIELD SOCCER ATHLETIC FIELD,BALFOUR HIGH SCHOOL,ATHLETIC FIELD,-104.59946857600,50.43830938850
950,1245 College Ave.,Balfour Collegiate - Public High School,Balfour Collegiate - Public High School,Public High School,-104.59910732000,50.43966331120
951,390 DALGLIESH DR,HENRY JANZEN MULTI - ATHLETIC FIELD MULTI-USE ATHLETIC FIELD,HENRY JANZEN MULTI,ATHLETIC FIELD,-104.65651963600,50.48994283820
952,222 RINK AVE,HENRY JANZEN PARK - BALL DIAMOND BS #196,HENRY JANZEN PARK,BALL DIAMOND,-104.65818933900,50.48846483280
953,1601 COWAN CRES,MONSEIGNEUR DE LAVAL - BASKETBALL,MONSEIGNEUR DE LAVAL,BASKETBALL,-104.60337232500,50.41780717330
954,1601 COWAN CRES,ECOLE MONSEIGNEUR DE LAVAL - PLAYGROUND 1601 COWAN CRES,ECOLE MONSEIGNEUR DE LAVAL,PLAYGROUND,-104.60353490700,50.41743413450
955,1601 Cowan Cr.,Ecole Monseigneur De Laval - 1601 Cowan Cr.,Ecole Monseigneur De Laval - 1601 Cowan Cr.,Other School,-104.60330273100,50.41768115350
956,2223 E VICTORIA AVE,VICTORIA SQUARE MALL,VICTORIA SQUARE MALL,Mall,-104.55177850200,50.44494951750
957,6829 CUNNINGHAM DR,ROCHDALE PARK - PLAYGROUND 6829 CUNNINGHAM DR,ROCHDALE PARK,PLAYGROUND,-104.67929077900,50.49570477810
958,1127 N ARNASON ST,NORTHWEST LEISURE CENTRE - OUTDOOR RINK SHELTER,NORTHWEST LEISURE CENTRE,OUTDOOR RINK SHELTER,-104.67945767800,50.49608215970
959,6829 CUNNINGHAM DRIVE,ROCHDALE PARK - PARK WATER FEATURE,ROCHDALE PARK,PARK WATER FEATURE,-104.67682244700,50.49714816570
960,3025 WASCANA CIR,WASCANA VIEW PARK - PLAYGROUND 3025 WASCANA CIR,WASCANA VIEW PARK,PLAYGROUND,-104.53447899400,50.41731951850
961,2330 25TH AVENUE,LEBOLDUS HIGH SCHOOL - BALL DIAMOND BS #18,LEBOLDUS HIGH SCHOOL,BALL DIAMOND,-104.61417841500,50.42114546140
962,2330 25th Ave.,Dr. Martin LeBoldus High School - Separate High School,Dr. Martin LeBoldus High School - Separate High School,Separate High School,-104.61450371200,50.42000029960
963,5325 DEWDNEY AVENUE,GRASSICK PARK MULTI - ATHLETIC FIELD MULTI-USE ATHLETIC FIELD,GRASSICK PARK MULTI,ATHLETIC FIELD,-104.66144468600,50.45327614960
964,5325 DEWDNEY AVENUE,GRASSICK PARK SOCCER - ATHLETIC FIELD SOCCER ATHLETIC FIELD,GRASSICK PARK SOCCER,ATHLETIC FIELD,-104.66136830900,50.45405636910
965,5325 DEWDNEY AVE,GRASSICK PARK - SEASONAL WASHROOM,GRASSICK PARK,SEASONAL WASHROOM,-104.66058418000,50.45464952890
966,5325 DEWDNEY AVENUE,OPTIMIST PARK - BALL DIAMOND BS #178,OPTIMIST PARK,BALL DIAMOND,-104.65610414100,50.45465180250
967,1010 MCCARTHY BLVD,A.E. WILSON PARK (WEST) - OUTDOOR RINK SHELTER,A.E. WILSON PARK (WEST),OUTDOOR RINK SHELTER,-104.67604209800,50.46039432240
968,1010 MCCARTHY BLVD,RICK HANSEN OPTIMIST PLAYGROUND - SEASONAL WASHROOM,RICK HANSEN OPTIMIST PLAYGROUND,SEASONAL WASHROOM,-104.67524611700,50.46023228640
969,1010 MCCARTHY BLVD.,JACK HAMILTON - ARENA,JACK HAMILTON,ARENA,-104.67365963700,50.46205558080
970,1010 MCCARTHY BOULEVARD,RICK HANSEN OPTIMIST PLAYGROUND - SPRAYPAD 1010 MCCARTHY BLVD,RICK HANSEN OPTIMIST PLAYGROUND,SPRAYPAD,-104.67525689000,50.46007694540
971,1010 MCCARTHY BOULEVARD,A.E. WILSON SOCCER - ATHLETIC FIELD SOCCER ATHLETIC FIELD,A.E. WILSON SOCCER,ATHLETIC FIELD,-104.67526430500,50.45755081370
972,1010 MCCARTHY BOULEVARD,A.E. WILSON PARK (WEST) - OUTDOOR TENNIS,A.E. WILSON PARK (WEST),OUTDOOR TENNIS,-104.67358839600,50.46154408660
973,1010 MCCARTHY BLVD,RICK HANSEN OPTIMIST - PLAYGROUND 1010 MCCARTHY BLVD,RICK HANSEN OPTIMIST,PLAYGROUND,-104.67557389100,50.46007182380
974,1320 TRUESDALE DRIVE,GARDINER PARK EXT MR2 - PLAYGROUND 1320 TRUESDALE DRIVE,GARDINER PARK EXT MR2,PLAYGROUND,-104.55650708800,50.44337946730
975,1700 ELPHINSTONE ST,CITY OF REGINA - INDOOR SKATEBOARD PARK,CITY OF REGINA,INDOOR SKATEBOARD PARK,-104.63274471400,50.45079980920
976,2301 ABBOTT ROAD,ARCOLA SCHOOL - BALL DIAMOND BS #61,ARCOLA SCHOOL,BALL DIAMOND,-104.57656773200,50.44311840070
977,2315 ABBOTT ROAD,ARCOLA SCHOOL  - ATHLETIC FIELD,ARCOLA SCHOOL,ATHLETIC FIELD,-104.57590505300,50.44266784080
978,2315 ABBOTT RD,ARCOLA SCHOOL - BASKETBALL,ARCOLA SCHOOL,BASKETBALL,-104.57632176700,50.44174792270
979,2315 ABBOTT RD,ARCOLA SCHOOL - PLAYGROUND 2315 ABBOTT RD,ARCOLA SCHOOL,PLAYGROUND,-104.57673918600,50.44229798210
980,2315 Abbott Rd,Arcola - Public Elementary School,Arcola - Public Elementary School,Public Elementary School,-104.57638804000,50.44230656460
981,6129 DALGLIESH DRIVE,W.H. FORD PARK - BALL DIAMOND BS #195,W.H. FORD PARK,BALL DIAMOND,-104.67027523600,50.48939722330
982,6129 DALGLIESH DRIVE,W.H. FORD PARK - OUTDOOR TENNIS,W.H. FORD PARK,OUTDOOR TENNIS,-104.67109954900,50.49003522110
983,6129 DALGLIESH DRIVE,W.H. FORD MULTI - ATHLETIC FIELD MULTI-USE ATHLETIC FIELD,W.H. FORD MULTI,ATHLETIC FIELD,-104.67116331400,50.48909074100
984,6129 DALGLIESH DRIVE,W.H. FORD PASSIVE - ATHLETIC FIELD,W.H. FORD PASSIVE,ATHLETIC FIELD,-104.67068740100,50.49113127150
985,1717 OSLER ST,REGINA POLICE SERVICE,REGINA POLICE SERVICE,Police,-104.60440690600,50.45131905570
